{
"type": "FeatureCollection",
"name": "Street Junctions Geo",
"crs": { "type": "name", "properties": { "name": "urn:ogc:def:crs:OGC:1.3:CRS84" } },
"features": [
{ "type": "Feature", "properties": { "id": 31, "latitude": 44.64964853, "longitude": -63.58499427 }, "geometry": { "type": "Point", "coordinates": [ -63.58499427, 44.64964853 ] } },
{ "type": "Feature", "properties": { "id": 48, "latitude": 44.64689448, "longitude": -63.57108464 }, "geometry": { "type": "Point", "coordinates": [ -63.57108464, 44.64689448 ] } },
{ "type": "Feature", "properties": { "id": 120, "latitude": 44.64353161, "longitude": -63.58848484 }, "geometry": { "type": "Point", "coordinates": [ -63.58848484, 44.64353161 ] } },
{ "type": "Feature", "properties": { "id": 134, "latitude": 44.64588196, "longitude": -63.57637145 }, "geometry": { "type": "Point", "coordinates": [ -63.57637145, 44.64588196 ] } },
{ "type": "Feature", "properties": { "id": 137, "latitude": 44.65223573, "longitude": -63.58157745 }, "geometry": { "type": "Point", "coordinates": [ -63.58157745, 44.65223573 ] } },
{ "type": "Feature", "properties": { "id": 143, "latitude": 44.65261952, "longitude": -63.59081584 }, "geometry": { "type": "Point", "coordinates": [ -63.59081584, 44.65261952 ] } },
{ "type": "Feature", "properties": { "id": 145, "latitude": 44.64688005, "longitude": -63.58666543 }, "geometry": { "type": "Point", "coordinates": [ -63.58666543, 44.64688005 ] } },
{ "type": "Feature", "properties": { "id": 214, "latitude": 44.6429818, "longitude": -63.59059152 }, "geometry": { "type": "Point", "coordinates": [ -63.59059152, 44.6429818 ] } },
{ "type": "Feature", "properties": { "id": 298, "latitude": 44.6417534, "longitude": -63.57128646 }, "geometry": { "type": "Point", "coordinates": [ -63.57128646, 44.6417534 ] } },
{ "type": "Feature", "properties": { "id": 384, "latitude": 44.65303293, "longitude": -63.59020843 }, "geometry": { "type": "Point", "coordinates": [ -63.59020843, 44.65303293 ] } },
{ "type": "Feature", "properties": { "id": 390, "latitude": 44.64657447, "longitude": -63.57671672 }, "geometry": { "type": "Point", "coordinates": [ -63.57671672, 44.64657447 ] } },
{ "type": "Feature", "properties": { "id": 451, "latitude": 44.6402791, "longitude": -63.57694481 }, "geometry": { "type": "Point", "coordinates": [ -63.57694481, 44.6402791 ] } },
{ "type": "Feature", "properties": { "id": 486, "latitude": 44.64516172, "longitude": -63.57723052 }, "geometry": { "type": "Point", "coordinates": [ -63.57723052, 44.64516172 ] } },
{ "type": "Feature", "properties": { "id": 585, "latitude": 44.64333312, "longitude": -63.5706496 }, "geometry": { "type": "Point", "coordinates": [ -63.5706496, 44.64333312 ] } },
{ "type": "Feature", "properties": { "id": 606, "latitude": 44.6509326, "longitude": -63.57595167 }, "geometry": { "type": "Point", "coordinates": [ -63.57595167, 44.6509326 ] } },
{ "type": "Feature", "properties": { "id": 633, "latitude": 44.65251796, "longitude": -63.57972108 }, "geometry": { "type": "Point", "coordinates": [ -63.57972108, 44.65251796 ] } },
{ "type": "Feature", "properties": { "id": 647, "latitude": 44.65337394, "longitude": -63.57912109 }, "geometry": { "type": "Point", "coordinates": [ -63.57912109, 44.65337394 ] } },
{ "type": "Feature", "properties": { "id": 958, "latitude": 44.65153877, "longitude": -63.57545588 }, "geometry": { "type": "Point", "coordinates": [ -63.57545588, 44.65153877 ] } },
{ "type": "Feature", "properties": { "id": 1002, "latitude": 44.64211762, "longitude": -63.57536205 }, "geometry": { "type": "Point", "coordinates": [ -63.57536205, 44.64211762 ] } },
{ "type": "Feature", "properties": { "id": 1006, "latitude": 44.64951301, "longitude": -63.57380425 }, "geometry": { "type": "Point", "coordinates": [ -63.57380425, 44.64951301 ] } },
{ "type": "Feature", "properties": { "id": 1016, "latitude": 44.64362819, "longitude": -63.5694909 }, "geometry": { "type": "Point", "coordinates": [ -63.5694909, 44.64362819 ] } },
{ "type": "Feature", "properties": { "id": 1018, "latitude": 44.64968369, "longitude": -63.58439813 }, "geometry": { "type": "Point", "coordinates": [ -63.58439813, 44.64968369 ] } },
{ "type": "Feature", "properties": { "id": 1147, "latitude": 44.64496452, "longitude": -63.58930763 }, "geometry": { "type": "Point", "coordinates": [ -63.58930763, 44.64496452 ] } },
{ "type": "Feature", "properties": { "id": 1166, "latitude": 44.65209367, "longitude": -63.58037484 }, "geometry": { "type": "Point", "coordinates": [ -63.58037484, 44.65209367 ] } },
{ "type": "Feature", "properties": { "id": 1433, "latitude": 44.64937407, "longitude": -63.58493795 }, "geometry": { "type": "Point", "coordinates": [ -63.58493795, 44.64937407 ] } },
{ "type": "Feature", "properties": { "id": 1438, "latitude": 44.64901204, "longitude": -63.57942344 }, "geometry": { "type": "Point", "coordinates": [ -63.57942344, 44.64901204 ] } },
{ "type": "Feature", "properties": { "id": 1454, "latitude": 44.64350255, "longitude": -63.59002946 }, "geometry": { "type": "Point", "coordinates": [ -63.59002946, 44.64350255 ] } },
{ "type": "Feature", "properties": { "id": 1566, "latitude": 44.65232839, "longitude": -63.58689621 }, "geometry": { "type": "Point", "coordinates": [ -63.58689621, 44.65232839 ] } },
{ "type": "Feature", "properties": { "id": 1699, "latitude": 44.65104964, "longitude": -63.59075767 }, "geometry": { "type": "Point", "coordinates": [ -63.59075767, 44.65104964 ] } },
{ "type": "Feature", "properties": { "id": 1784, "latitude": 44.64591632, "longitude": -63.57489864 }, "geometry": { "type": "Point", "coordinates": [ -63.57489864, 44.64591632 ] } },
{ "type": "Feature", "properties": { "id": 1833, "latitude": 44.64937228, "longitude": -63.58537931 }, "geometry": { "type": "Point", "coordinates": [ -63.58537931, 44.64937228 ] } },
{ "type": "Feature", "properties": { "id": 1852, "latitude": 44.64664181, "longitude": -63.56993199 }, "geometry": { "type": "Point", "coordinates": [ -63.56993199, 44.64664181 ] } },
{ "type": "Feature", "properties": { "id": 1871, "latitude": 44.65356366, "longitude": -63.58869802 }, "geometry": { "type": "Point", "coordinates": [ -63.58869802, 44.65356366 ] } },
{ "type": "Feature", "properties": { "id": 1919, "latitude": 44.64299987, "longitude": -63.57192207 }, "geometry": { "type": "Point", "coordinates": [ -63.57192207, 44.64299987 ] } },
{ "type": "Feature", "properties": { "id": 1920, "latitude": 44.65340827, "longitude": -63.58847139 }, "geometry": { "type": "Point", "coordinates": [ -63.58847139, 44.65340827 ] } },
{ "type": "Feature", "properties": { "id": 2068, "latitude": 44.64873442, "longitude": -63.57261747 }, "geometry": { "type": "Point", "coordinates": [ -63.57261747, 44.64873442 ] } },
{ "type": "Feature", "properties": { "id": 2087, "latitude": 44.65107768, "longitude": -63.58731601 }, "geometry": { "type": "Point", "coordinates": [ -63.58731601, 44.65107768 ] } },
{ "type": "Feature", "properties": { "id": 2125, "latitude": 44.65402864, "longitude": -63.59285204 }, "geometry": { "type": "Point", "coordinates": [ -63.59285204, 44.65402864 ] } },
{ "type": "Feature", "properties": { "id": 2188, "latitude": 44.65280205, "longitude": -63.58618933 }, "geometry": { "type": "Point", "coordinates": [ -63.58618933, 44.65280205 ] } },
{ "type": "Feature", "properties": { "id": 2228, "latitude": 44.64429571, "longitude": -63.57861513 }, "geometry": { "type": "Point", "coordinates": [ -63.57861513, 44.64429571 ] } },
{ "type": "Feature", "properties": { "id": 2297, "latitude": 44.65077286, "longitude": -63.57882574 }, "geometry": { "type": "Point", "coordinates": [ -63.57882574, 44.65077286 ] } },
{ "type": "Feature", "properties": { "id": 2299, "latitude": 44.64186451, "longitude": -63.57630411 }, "geometry": { "type": "Point", "coordinates": [ -63.57630411, 44.64186451 ] } },
{ "type": "Feature", "properties": { "id": 2373, "latitude": 44.64273469, "longitude": -63.57300057 }, "geometry": { "type": "Point", "coordinates": [ -63.57300057, 44.64273469 ] } },
{ "type": "Feature", "properties": { "id": 2465, "latitude": 44.65085618, "longitude": -63.57936778 }, "geometry": { "type": "Point", "coordinates": [ -63.57936778, 44.65085618 ] } },
{ "type": "Feature", "properties": { "id": 2494, "latitude": 44.64360346, "longitude": -63.58416562 }, "geometry": { "type": "Point", "coordinates": [ -63.58416562, 44.64360346 ] } },
{ "type": "Feature", "properties": { "id": 2552, "latitude": 44.6422886, "longitude": -63.57976248 }, "geometry": { "type": "Point", "coordinates": [ -63.57976248, 44.6422886 ] } },
{ "type": "Feature", "properties": { "id": 2565, "latitude": 44.64206966, "longitude": -63.58906774 }, "geometry": { "type": "Point", "coordinates": [ -63.58906774, 44.64206966 ] } },
{ "type": "Feature", "properties": { "id": 2600, "latitude": 44.65383256, "longitude": -63.59012678 }, "geometry": { "type": "Point", "coordinates": [ -63.59012678, 44.65383256 ] } },
{ "type": "Feature", "properties": { "id": 2785, "latitude": 44.64109133, "longitude": -63.57380632 }, "geometry": { "type": "Point", "coordinates": [ -63.57380632, 44.64109133 ] } },
{ "type": "Feature", "properties": { "id": 2813, "latitude": 44.64749817, "longitude": -63.59066508 }, "geometry": { "type": "Point", "coordinates": [ -63.59066508, 44.64749817 ] } },
{ "type": "Feature", "properties": { "id": 2925, "latitude": 44.64626338, "longitude": -63.5735703 }, "geometry": { "type": "Point", "coordinates": [ -63.5735703, 44.64626338 ] } },
{ "type": "Feature", "properties": { "id": 2976, "latitude": 44.64061258, "longitude": -63.57566494 }, "geometry": { "type": "Point", "coordinates": [ -63.57566494, 44.64061258 ] } },
{ "type": "Feature", "properties": { "id": 3083, "latitude": 44.64580224, "longitude": -63.59299361 }, "geometry": { "type": "Point", "coordinates": [ -63.59299361, 44.64580224 ] } },
{ "type": "Feature", "properties": { "id": 3179, "latitude": 44.64959231, "longitude": -63.58538844 }, "geometry": { "type": "Point", "coordinates": [ -63.58538844, 44.64959231 ] } },
{ "type": "Feature", "properties": { "id": 3203, "latitude": 44.6506937, "longitude": -63.58658128 }, "geometry": { "type": "Point", "coordinates": [ -63.58658128, 44.6506937 ] } },
{ "type": "Feature", "properties": { "id": 3212, "latitude": 44.65158447, "longitude": -63.58834279 }, "geometry": { "type": "Point", "coordinates": [ -63.58834279, 44.65158447 ] } },
{ "type": "Feature", "properties": { "id": 3229, "latitude": 44.65253062, "longitude": -63.57783371 }, "geometry": { "type": "Point", "coordinates": [ -63.57783371, 44.65253062 ] } },
{ "type": "Feature", "properties": { "id": 3289, "latitude": 44.64587558, "longitude": -63.58970009 }, "geometry": { "type": "Point", "coordinates": [ -63.58970009, 44.64587558 ] } },
{ "type": "Feature", "properties": { "id": 3429, "latitude": 44.64038476, "longitude": -63.58685374 }, "geometry": { "type": "Point", "coordinates": [ -63.58685374, 44.64038476 ] } },
{ "type": "Feature", "properties": { "id": 3489, "latitude": 44.65285656, "longitude": -63.5832195 }, "geometry": { "type": "Point", "coordinates": [ -63.5832195, 44.65285656 ] } },
{ "type": "Feature", "properties": { "id": 3498, "latitude": 44.64136309, "longitude": -63.57813068 }, "geometry": { "type": "Point", "coordinates": [ -63.57813068, 44.64136309 ] } },
{ "type": "Feature", "properties": { "id": 3512, "latitude": 44.64372213, "longitude": -63.5919513 }, "geometry": { "type": "Point", "coordinates": [ -63.5919513, 44.64372213 ] } },
{ "type": "Feature", "properties": { "id": 3555, "latitude": 44.64644155, "longitude": -63.58604969 }, "geometry": { "type": "Point", "coordinates": [ -63.58604969, 44.64644155 ] } },
{ "type": "Feature", "properties": { "id": 3609, "latitude": 44.65122432, "longitude": -63.57497532 }, "geometry": { "type": "Point", "coordinates": [ -63.57497532, 44.65122432 ] } },
{ "type": "Feature", "properties": { "id": 3627, "latitude": 44.6513374, "longitude": -63.5882855 }, "geometry": { "type": "Point", "coordinates": [ -63.5882855, 44.6513374 ] } },
{ "type": "Feature", "properties": { "id": 3725, "latitude": 44.64322054, "longitude": -63.58966654 }, "geometry": { "type": "Point", "coordinates": [ -63.58966654, 44.64322054 ] } },
{ "type": "Feature", "properties": { "id": 3783, "latitude": 44.64725863, "longitude": -63.59172188 }, "geometry": { "type": "Point", "coordinates": [ -63.59172188, 44.64725863 ] } },
{ "type": "Feature", "properties": { "id": 3823, "latitude": 44.64804382, "longitude": -63.57527805 }, "geometry": { "type": "Point", "coordinates": [ -63.57527805, 44.64804382 ] } },
{ "type": "Feature", "properties": { "id": 4018, "latitude": 44.65150067, "longitude": -63.58786376 }, "geometry": { "type": "Point", "coordinates": [ -63.58786376, 44.65150067 ] } },
{ "type": "Feature", "properties": { "id": 4144, "latitude": 44.64275563, "longitude": -63.59146274 }, "geometry": { "type": "Point", "coordinates": [ -63.59146274, 44.64275563 ] } },
{ "type": "Feature", "properties": { "id": 4200, "latitude": 44.64500084, "longitude": -63.57859868 }, "geometry": { "type": "Point", "coordinates": [ -63.57859868, 44.64500084 ] } },
{ "type": "Feature", "properties": { "id": 4282, "latitude": 44.65427739, "longitude": -63.58762144 }, "geometry": { "type": "Point", "coordinates": [ -63.58762144, 44.65427739 ] } },
{ "type": "Feature", "properties": { "id": 4307, "latitude": 44.65289003, "longitude": -63.5877125 }, "geometry": { "type": "Point", "coordinates": [ -63.5877125, 44.65289003 ] } },
{ "type": "Feature", "properties": { "id": 4496, "latitude": 44.65135576, "longitude": -63.58947697 }, "geometry": { "type": "Point", "coordinates": [ -63.58947697, 44.65135576 ] } },
{ "type": "Feature", "properties": { "id": 4767, "latitude": 44.64085341, "longitude": -63.58842952 }, "geometry": { "type": "Point", "coordinates": [ -63.58842952, 44.64085341 ] } },
{ "type": "Feature", "properties": { "id": 4848, "latitude": 44.64403902, "longitude": -63.57512647 }, "geometry": { "type": "Point", "coordinates": [ -63.57512647, 44.64403902 ] } },
{ "type": "Feature", "properties": { "id": 4922, "latitude": 44.65181853, "longitude": -63.58838048 }, "geometry": { "type": "Point", "coordinates": [ -63.58838048, 44.65181853 ] } },
{ "type": "Feature", "properties": { "id": 5027, "latitude": 44.64996226, "longitude": -63.58342831 }, "geometry": { "type": "Point", "coordinates": [ -63.58342831, 44.64996226 ] } },
{ "type": "Feature", "properties": { "id": 5051, "latitude": 44.64387307, "longitude": -63.57388072 }, "geometry": { "type": "Point", "coordinates": [ -63.57388072, 44.64387307 ] } },
{ "type": "Feature", "properties": { "id": 5089, "latitude": 44.64161033, "longitude": -63.57724878 }, "geometry": { "type": "Point", "coordinates": [ -63.57724878, 44.64161033 ] } },
{ "type": "Feature", "properties": { "id": 5109, "latitude": 44.64103617, "longitude": -63.57996436 }, "geometry": { "type": "Point", "coordinates": [ -63.57996436, 44.64103617 ] } },
{ "type": "Feature", "properties": { "id": 5172, "latitude": 44.65103081, "longitude": -63.58359298 }, "geometry": { "type": "Point", "coordinates": [ -63.58359298, 44.65103081 ] } },
{ "type": "Feature", "properties": { "id": 5187, "latitude": 44.652387, "longitude": -63.59101229 }, "geometry": { "type": "Point", "coordinates": [ -63.59101229, 44.652387 ] } },
{ "type": "Feature", "properties": { "id": 5210, "latitude": 44.65131055, "longitude": -63.57927405 }, "geometry": { "type": "Point", "coordinates": [ -63.57927405, 44.65131055 ] } },
{ "type": "Feature", "properties": { "id": 5218, "latitude": 44.64369853, "longitude": -63.57642403 }, "geometry": { "type": "Point", "coordinates": [ -63.57642403, 44.64369853 ] } },
{ "type": "Feature", "properties": { "id": 5289, "latitude": 44.65239042, "longitude": -63.58390873 }, "geometry": { "type": "Point", "coordinates": [ -63.58390873, 44.65239042 ] } },
{ "type": "Feature", "properties": { "id": 5333, "latitude": 44.65169665, "longitude": -63.58153389 }, "geometry": { "type": "Point", "coordinates": [ -63.58153389, 44.65169665 ] } },
{ "type": "Feature", "properties": { "id": 5407, "latitude": 44.6487179, "longitude": -63.57700897 }, "geometry": { "type": "Point", "coordinates": [ -63.57700897, 44.6487179 ] } },
{ "type": "Feature", "properties": { "id": 5427, "latitude": 44.65408864, "longitude": -63.58498839 }, "geometry": { "type": "Point", "coordinates": [ -63.58498839, 44.65408864 ] } },
{ "type": "Feature", "properties": { "id": 5428, "latitude": 44.64471131, "longitude": -63.57278422 }, "geometry": { "type": "Point", "coordinates": [ -63.57278422, 44.64471131 ] } },
{ "type": "Feature", "properties": { "id": 5504, "latitude": 44.64787952, "longitude": -63.57590866 }, "geometry": { "type": "Point", "coordinates": [ -63.57590866, 44.64787952 ] } },
{ "type": "Feature", "properties": { "id": 5610, "latitude": 44.64076214, "longitude": -63.57077853 }, "geometry": { "type": "Point", "coordinates": [ -63.57077853, 44.64076214 ] } },
{ "type": "Feature", "properties": { "id": 5632, "latitude": 44.65039399, "longitude": -63.58502212 }, "geometry": { "type": "Point", "coordinates": [ -63.58502212, 44.65039399 ] } },
{ "type": "Feature", "properties": { "id": 5654, "latitude": 44.653441, "longitude": -63.58235036 }, "geometry": { "type": "Point", "coordinates": [ -63.58235036, 44.653441 ] } },
{ "type": "Feature", "properties": { "id": 5737, "latitude": 44.64179667, "longitude": -63.58556823 }, "geometry": { "type": "Point", "coordinates": [ -63.58556823, 44.64179667 ] } },
{ "type": "Feature", "properties": { "id": 5781, "latitude": 44.64944793, "longitude": -63.57154842 }, "geometry": { "type": "Point", "coordinates": [ -63.57154842, 44.64944793 ] } },
{ "type": "Feature", "properties": { "id": 5782, "latitude": 44.64086369, "longitude": -63.58507908 }, "geometry": { "type": "Point", "coordinates": [ -63.58507908, 44.64086369 ] } },
{ "type": "Feature", "properties": { "id": 5788, "latitude": 44.64212913, "longitude": -63.58033948 }, "geometry": { "type": "Point", "coordinates": [ -63.58033948, 44.64212913 ] } },
{ "type": "Feature", "properties": { "id": 5803, "latitude": 44.64438319, "longitude": -63.58533217 }, "geometry": { "type": "Point", "coordinates": [ -63.58533217, 44.64438319 ] } },
{ "type": "Feature", "properties": { "id": 5864, "latitude": 44.64306542, "longitude": -63.5769145 }, "geometry": { "type": "Point", "coordinates": [ -63.5769145, 44.64306542 ] } },
{ "type": "Feature", "properties": { "id": 5939, "latitude": 44.6515477, "longitude": -63.58191458 }, "geometry": { "type": "Point", "coordinates": [ -63.58191458, 44.6515477 ] } },
{ "type": "Feature", "properties": { "id": 5982, "latitude": 44.6502521, "longitude": -63.57487204 }, "geometry": { "type": "Point", "coordinates": [ -63.57487204, 44.6502521 ] } },
{ "type": "Feature", "properties": { "id": 6112, "latitude": 44.64954528, "longitude": -63.57319961 }, "geometry": { "type": "Point", "coordinates": [ -63.57319961, 44.64954528 ] } },
{ "type": "Feature", "properties": { "id": 6123, "latitude": 44.64120581, "longitude": -63.56813985 }, "geometry": { "type": "Point", "coordinates": [ -63.56813985, 44.64120581 ] } },
{ "type": "Feature", "properties": { "id": 6137, "latitude": 44.64854388, "longitude": -63.57330742 }, "geometry": { "type": "Point", "coordinates": [ -63.57330742, 44.64854388 ] } },
{ "type": "Feature", "properties": { "id": 6183, "latitude": 44.64107418, "longitude": -63.57915316 }, "geometry": { "type": "Point", "coordinates": [ -63.57915316, 44.64107418 ] } },
{ "type": "Feature", "properties": { "id": 6189, "latitude": 44.6485932, "longitude": -63.57773267 }, "geometry": { "type": "Point", "coordinates": [ -63.57773267, 44.6485932 ] } },
{ "type": "Feature", "properties": { "id": 6312, "latitude": 44.64488098, "longitude": -63.57213515 }, "geometry": { "type": "Point", "coordinates": [ -63.57213515, 44.64488098 ] } },
{ "type": "Feature", "properties": { "id": 6333, "latitude": 44.64740173, "longitude": -63.57344094 }, "geometry": { "type": "Point", "coordinates": [ -63.57344094, 44.64740173 ] } },
{ "type": "Feature", "properties": { "id": 6347, "latitude": 44.64370969, "longitude": -63.58457942 }, "geometry": { "type": "Point", "coordinates": [ -63.58457942, 44.64370969 ] } },
{ "type": "Feature", "properties": { "id": 6357, "latitude": 44.65403434, "longitude": -63.58798819 }, "geometry": { "type": "Point", "coordinates": [ -63.58798819, 44.65403434 ] } },
{ "type": "Feature", "properties": { "id": 6371, "latitude": 44.64352358, "longitude": -63.58447935 }, "geometry": { "type": "Point", "coordinates": [ -63.58447935, 44.64352358 ] } },
{ "type": "Feature", "properties": { "id": 6505, "latitude": 44.65137103, "longitude": -63.58888899 }, "geometry": { "type": "Point", "coordinates": [ -63.58888899, 44.65137103 ] } },
{ "type": "Feature", "properties": { "id": 6507, "latitude": 44.6542993, "longitude": -63.58121094 }, "geometry": { "type": "Point", "coordinates": [ -63.58121094, 44.6542993 ] } },
{ "type": "Feature", "properties": { "id": 6543, "latitude": 44.65425121, "longitude": -63.58142854 }, "geometry": { "type": "Point", "coordinates": [ -63.58142854, 44.65425121 ] } },
{ "type": "Feature", "properties": { "id": 6578, "latitude": 44.64444216, "longitude": -63.58082461 }, "geometry": { "type": "Point", "coordinates": [ -63.58082461, 44.64444216 ] } },
{ "type": "Feature", "properties": { "id": 6596, "latitude": 44.649784, "longitude": -63.58411944 }, "geometry": { "type": "Point", "coordinates": [ -63.58411944, 44.649784 ] } },
{ "type": "Feature", "properties": { "id": 6646, "latitude": 44.64511905, "longitude": -63.57378711 }, "geometry": { "type": "Point", "coordinates": [ -63.57378711, 44.64511905 ] } },
{ "type": "Feature", "properties": { "id": 6664, "latitude": 44.65209261, "longitude": -63.58879311 }, "geometry": { "type": "Point", "coordinates": [ -63.58879311, 44.65209261 ] } },
{ "type": "Feature", "properties": { "id": 6772, "latitude": 44.65082255, "longitude": -63.57464228 }, "geometry": { "type": "Point", "coordinates": [ -63.57464228, 44.65082255 ] } },
{ "type": "Feature", "properties": { "id": 6839, "latitude": 44.64421634, "longitude": -63.57254028 }, "geometry": { "type": "Point", "coordinates": [ -63.57254028, 44.64421634 ] } },
{ "type": "Feature", "properties": { "id": 6845, "latitude": 44.64656347, "longitude": -63.57748131 }, "geometry": { "type": "Point", "coordinates": [ -63.57748131, 44.64656347 ] } },
{ "type": "Feature", "properties": { "id": 7048, "latitude": 44.64058407, "longitude": -63.59189356 }, "geometry": { "type": "Point", "coordinates": [ -63.59189356, 44.64058407 ] } },
{ "type": "Feature", "properties": { "id": 7162, "latitude": 44.6508563, "longitude": -63.57446286 }, "geometry": { "type": "Point", "coordinates": [ -63.57446286, 44.6508563 ] } },
{ "type": "Feature", "properties": { "id": 7206, "latitude": 44.65048779, "longitude": -63.5921727 }, "geometry": { "type": "Point", "coordinates": [ -63.5921727, 44.65048779 ] } },
{ "type": "Feature", "properties": { "id": 7223, "latitude": 44.64865242, "longitude": -63.59239956 }, "geometry": { "type": "Point", "coordinates": [ -63.59239956, 44.64865242 ] } },
{ "type": "Feature", "properties": { "id": 7275, "latitude": 44.64278068, "longitude": -63.57265459 }, "geometry": { "type": "Point", "coordinates": [ -63.57265459, 44.64278068 ] } },
{ "type": "Feature", "properties": { "id": 7313, "latitude": 44.65383018, "longitude": -63.58697571 }, "geometry": { "type": "Point", "coordinates": [ -63.58697571, 44.65383018 ] } },
{ "type": "Feature", "properties": { "id": 7318, "latitude": 44.64238579, "longitude": -63.58789751 }, "geometry": { "type": "Point", "coordinates": [ -63.58789751, 44.64238579 ] } },
{ "type": "Feature", "properties": { "id": 7375, "latitude": 44.64706611, "longitude": -63.57478134 }, "geometry": { "type": "Point", "coordinates": [ -63.57478134, 44.64706611 ] } },
{ "type": "Feature", "properties": { "id": 7400, "latitude": 44.65105199, "longitude": -63.58601534 }, "geometry": { "type": "Point", "coordinates": [ -63.58601534, 44.65105199 ] } },
{ "type": "Feature", "properties": { "id": 7420, "latitude": 44.64480015, "longitude": -63.5750362 }, "geometry": { "type": "Point", "coordinates": [ -63.5750362, 44.64480015 ] } },
{ "type": "Feature", "properties": { "id": 7455, "latitude": 44.6408688, "longitude": -63.59085213 }, "geometry": { "type": "Point", "coordinates": [ -63.59085213, 44.6408688 ] } },
{ "type": "Feature", "properties": { "id": 7491, "latitude": 44.64900757, "longitude": -63.57243421 }, "geometry": { "type": "Point", "coordinates": [ -63.57243421, 44.64900757 ] } },
{ "type": "Feature", "properties": { "id": 7572, "latitude": 44.64119925, "longitude": -63.58968065 }, "geometry": { "type": "Point", "coordinates": [ -63.58968065, 44.64119925 ] } },
{ "type": "Feature", "properties": { "id": 7584, "latitude": 44.65368508, "longitude": -63.58198429 }, "geometry": { "type": "Point", "coordinates": [ -63.58198429, 44.65368508 ] } },
{ "type": "Feature", "properties": { "id": 7645, "latitude": 44.64771149, "longitude": -63.57217097 }, "geometry": { "type": "Point", "coordinates": [ -63.57217097, 44.64771149 ] } },
{ "type": "Feature", "properties": { "id": 7754, "latitude": 44.64066282, "longitude": -63.56930234 }, "geometry": { "type": "Point", "coordinates": [ -63.56930234, 44.64066282 ] } },
{ "type": "Feature", "properties": { "id": 7781, "latitude": 44.64892578, "longitude": -63.57232054 }, "geometry": { "type": "Point", "coordinates": [ -63.57232054, 44.64892578 ] } },
{ "type": "Feature", "properties": { "id": 7821, "latitude": 44.65164672, "longitude": -63.57668384 }, "geometry": { "type": "Point", "coordinates": [ -63.57668384, 44.65164672 ] } },
{ "type": "Feature", "properties": { "id": 7830, "latitude": 44.64415277, "longitude": -63.57747239 }, "geometry": { "type": "Point", "coordinates": [ -63.57747239, 44.64415277 ] } },
{ "type": "Feature", "properties": { "id": 7876, "latitude": 44.64417299, "longitude": -63.59021005 }, "geometry": { "type": "Point", "coordinates": [ -63.59021005, 44.64417299 ] } },
{ "type": "Feature", "properties": { "id": 7886, "latitude": 44.65311578, "longitude": -63.5801644 }, "geometry": { "type": "Point", "coordinates": [ -63.5801644, 44.65311578 ] } },
{ "type": "Feature", "properties": { "id": 7905, "latitude": 44.65407492, "longitude": -63.57989837 }, "geometry": { "type": "Point", "coordinates": [ -63.57989837, 44.65407492 ] } },
{ "type": "Feature", "properties": { "id": 7907, "latitude": 44.65445187, "longitude": -63.59224583 }, "geometry": { "type": "Point", "coordinates": [ -63.59224583, 44.65445187 ] } },
{ "type": "Feature", "properties": { "id": 7915, "latitude": 44.64787697, "longitude": -63.57153115 }, "geometry": { "type": "Point", "coordinates": [ -63.57153115, 44.64787697 ] } },
{ "type": "Feature", "properties": { "id": 8029, "latitude": 44.64360442, "longitude": -63.57488793 }, "geometry": { "type": "Point", "coordinates": [ -63.57488793, 44.64360442 ] } },
{ "type": "Feature", "properties": { "id": 8040, "latitude": 44.64181856, "longitude": -63.59001142 }, "geometry": { "type": "Point", "coordinates": [ -63.59001142, 44.64181856 ] } },
{ "type": "Feature", "properties": { "id": 8058, "latitude": 44.6410282, "longitude": -63.57404812 }, "geometry": { "type": "Point", "coordinates": [ -63.57404812, 44.6410282 ] } },
{ "type": "Feature", "properties": { "id": 8081, "latitude": 44.64557592, "longitude": -63.56936782 }, "geometry": { "type": "Point", "coordinates": [ -63.56936782, 44.64557592 ] } },
{ "type": "Feature", "properties": { "id": 8155, "latitude": 44.65164585, "longitude": -63.58801999 }, "geometry": { "type": "Point", "coordinates": [ -63.58801999, 44.65164585 ] } },
{ "type": "Feature", "properties": { "id": 8193, "latitude": 44.64263207, "longitude": -63.5744414 }, "geometry": { "type": "Point", "coordinates": [ -63.5744414, 44.64263207 ] } },
{ "type": "Feature", "properties": { "id": 8208, "latitude": 44.64503856, "longitude": -63.57151088 }, "geometry": { "type": "Point", "coordinates": [ -63.57151088, 44.64503856 ] } },
{ "type": "Feature", "properties": { "id": 8209, "latitude": 44.64540281, "longitude": -63.57699683 }, "geometry": { "type": "Point", "coordinates": [ -63.57699683, 44.64540281 ] } },
{ "type": "Feature", "properties": { "id": 8219, "latitude": 44.64111949, "longitude": -63.5736991 }, "geometry": { "type": "Point", "coordinates": [ -63.5736991, 44.64111949 ] } },
{ "type": "Feature", "properties": { "id": 8448, "latitude": 44.6519007, "longitude": -63.58626623 }, "geometry": { "type": "Point", "coordinates": [ -63.58626623, 44.6519007 ] } },
{ "type": "Feature", "properties": { "id": 8471, "latitude": 44.65208678, "longitude": -63.58089811 }, "geometry": { "type": "Point", "coordinates": [ -63.58089811, 44.65208678 ] } },
{ "type": "Feature", "properties": { "id": 8495, "latitude": 44.65066913, "longitude": -63.58445874 }, "geometry": { "type": "Point", "coordinates": [ -63.58445874, 44.65066913 ] } },
{ "type": "Feature", "properties": { "id": 8503, "latitude": 44.64662681, "longitude": -63.57787661 }, "geometry": { "type": "Point", "coordinates": [ -63.57787661, 44.64662681 ] } },
{ "type": "Feature", "properties": { "id": 8547, "latitude": 44.65081703, "longitude": -63.59234271 }, "geometry": { "type": "Point", "coordinates": [ -63.59234271, 44.65081703 ] } },
{ "type": "Feature", "properties": { "id": 8566, "latitude": 44.65228689, "longitude": -63.59019146 }, "geometry": { "type": "Point", "coordinates": [ -63.59019146, 44.65228689 ] } },
{ "type": "Feature", "properties": { "id": 8592, "latitude": 44.65434203, "longitude": -63.58161718 }, "geometry": { "type": "Point", "coordinates": [ -63.58161718, 44.65434203 ] } },
{ "type": "Feature", "properties": { "id": 8598, "latitude": 44.64755251, "longitude": -63.57720521 }, "geometry": { "type": "Point", "coordinates": [ -63.57720521, 44.64755251 ] } },
{ "type": "Feature", "properties": { "id": 8686, "latitude": 44.64033157, "longitude": -63.56911013 }, "geometry": { "type": "Point", "coordinates": [ -63.56911013, 44.64033157 ] } },
{ "type": "Feature", "properties": { "id": 8755, "latitude": 44.64418633, "longitude": -63.57714338 }, "geometry": { "type": "Point", "coordinates": [ -63.57714338, 44.64418633 ] } },
{ "type": "Feature", "properties": { "id": 8774, "latitude": 44.64841638, "longitude": -63.58815935 }, "geometry": { "type": "Point", "coordinates": [ -63.58815935, 44.64841638 ] } },
{ "type": "Feature", "properties": { "id": 8831, "latitude": 44.65101774, "longitude": -63.59122162 }, "geometry": { "type": "Point", "coordinates": [ -63.59122162, 44.65101774 ] } },
{ "type": "Feature", "properties": { "id": 8936, "latitude": 44.64403447, "longitude": -63.5797207 }, "geometry": { "type": "Point", "coordinates": [ -63.5797207, 44.64403447 ] } },
{ "type": "Feature", "properties": { "id": 9023, "latitude": 44.65025933, "longitude": -63.59204132 }, "geometry": { "type": "Point", "coordinates": [ -63.59204132, 44.65025933 ] } },
{ "type": "Feature", "properties": { "id": 9028, "latitude": 44.6492101, "longitude": -63.57506649 }, "geometry": { "type": "Point", "coordinates": [ -63.57506649, 44.6492101 ] } },
{ "type": "Feature", "properties": { "id": 9038, "latitude": 44.65219779, "longitude": -63.59142528 }, "geometry": { "type": "Point", "coordinates": [ -63.59142528, 44.65219779 ] } },
{ "type": "Feature", "properties": { "id": 9042, "latitude": 44.65131471, "longitude": -63.59267976 }, "geometry": { "type": "Point", "coordinates": [ -63.59267976, 44.65131471 ] } },
{ "type": "Feature", "properties": { "id": 9100, "latitude": 44.65226523, "longitude": -63.58062876 }, "geometry": { "type": "Point", "coordinates": [ -63.58062876, 44.65226523 ] } },
{ "type": "Feature", "properties": { "id": 9148, "latitude": 44.64690486, "longitude": -63.57540648 }, "geometry": { "type": "Point", "coordinates": [ -63.57540648, 44.64690486 ] } },
{ "type": "Feature", "properties": { "id": 9188, "latitude": 44.64962748, "longitude": -63.59171606 }, "geometry": { "type": "Point", "coordinates": [ -63.59171606, 44.64962748 ] } },
{ "type": "Feature", "properties": { "id": 9222, "latitude": 44.64928369, "longitude": -63.57167018 }, "geometry": { "type": "Point", "coordinates": [ -63.57167018, 44.64928369 ] } },
{ "type": "Feature", "properties": { "id": 9285, "latitude": 44.65213316, "longitude": -63.5827598 }, "geometry": { "type": "Point", "coordinates": [ -63.5827598, 44.65213316 ] } },
{ "type": "Feature", "properties": { "id": 9359, "latitude": 44.65276199, "longitude": -63.57498597 }, "geometry": { "type": "Point", "coordinates": [ -63.57498597, 44.65276199 ] } },
{ "type": "Feature", "properties": { "id": 9372, "latitude": 44.65426322, "longitude": -63.59073316 }, "geometry": { "type": "Point", "coordinates": [ -63.59073316, 44.65426322 ] } },
{ "type": "Feature", "properties": { "id": 9461, "latitude": 44.64674082, "longitude": -63.57167592 }, "geometry": { "type": "Point", "coordinates": [ -63.57167592, 44.64674082 ] } },
{ "type": "Feature", "properties": { "id": 9487, "latitude": 44.65236624, "longitude": -63.58555575 }, "geometry": { "type": "Point", "coordinates": [ -63.58555575, 44.65236624 ] } },
{ "type": "Feature", "properties": { "id": 9523, "latitude": 44.65384312, "longitude": -63.58909591 }, "geometry": { "type": "Point", "coordinates": [ -63.58909591, 44.65384312 ] } },
{ "type": "Feature", "properties": { "id": 9599, "latitude": 44.65445594, "longitude": -63.58168283 }, "geometry": { "type": "Point", "coordinates": [ -63.58168283, 44.65445594 ] } },
{ "type": "Feature", "properties": { "id": 9602, "latitude": 44.64921474, "longitude": -63.58004894 }, "geometry": { "type": "Point", "coordinates": [ -63.58004894, 44.64921474 ] } },
{ "type": "Feature", "properties": { "id": 9718, "latitude": 44.64447994, "longitude": -63.5849929 }, "geometry": { "type": "Point", "coordinates": [ -63.5849929, 44.64447994 ] } },
{ "type": "Feature", "properties": { "id": 9726, "latitude": 44.64133377, "longitude": -63.58333123 }, "geometry": { "type": "Point", "coordinates": [ -63.58333123, 44.64133377 ] } },
{ "type": "Feature", "properties": { "id": 9740, "latitude": 44.64418464, "longitude": -63.59218925 }, "geometry": { "type": "Point", "coordinates": [ -63.59218925, 44.64418464 ] } },
{ "type": "Feature", "properties": { "id": 9842, "latitude": 44.65204271, "longitude": -63.59050512 }, "geometry": { "type": "Point", "coordinates": [ -63.59050512, 44.65204271 ] } },
{ "type": "Feature", "properties": { "id": 9943, "latitude": 44.64564204, "longitude": -63.56910971 }, "geometry": { "type": "Point", "coordinates": [ -63.56910971, 44.64564204 ] } },
{ "type": "Feature", "properties": { "id": 9958, "latitude": 44.65180283, "longitude": -63.59106504 }, "geometry": { "type": "Point", "coordinates": [ -63.59106504, 44.65180283 ] } },
{ "type": "Feature", "properties": { "id": 10017, "latitude": 44.64608092, "longitude": -63.57427011 }, "geometry": { "type": "Point", "coordinates": [ -63.57427011, 44.64608092 ] } },
{ "type": "Feature", "properties": { "id": 10026, "latitude": 44.64674663, "longitude": -63.57604228 }, "geometry": { "type": "Point", "coordinates": [ -63.57604228, 44.64674663 ] } },
{ "type": "Feature", "properties": { "id": 10090, "latitude": 44.64658514, "longitude": -63.57230151 }, "geometry": { "type": "Point", "coordinates": [ -63.57230151, 44.64658514 ] } },
{ "type": "Feature", "properties": { "id": 10129, "latitude": 44.65268036, "longitude": -63.58967769 }, "geometry": { "type": "Point", "coordinates": [ -63.58967769, 44.65268036 ] } },
{ "type": "Feature", "properties": { "id": 10258, "latitude": 44.64512222, "longitude": -63.59265907 }, "geometry": { "type": "Point", "coordinates": [ -63.59265907, 44.64512222 ] } },
{ "type": "Feature", "properties": { "id": 10281, "latitude": 44.64492036, "longitude": -63.57893717 }, "geometry": { "type": "Point", "coordinates": [ -63.57893717, 44.64492036 ] } },
{ "type": "Feature", "properties": { "id": 10316, "latitude": 44.64241497, "longitude": -63.56876802 }, "geometry": { "type": "Point", "coordinates": [ -63.56876802, 44.64241497 ] } },
{ "type": "Feature", "properties": { "id": 10360, "latitude": 44.64036295, "longitude": -63.57661736 }, "geometry": { "type": "Point", "coordinates": [ -63.57661736, 44.64036295 ] } },
{ "type": "Feature", "properties": { "id": 10373, "latitude": 44.64465529, "longitude": -63.57999367 }, "geometry": { "type": "Point", "coordinates": [ -63.57999367, 44.64465529 ] } },
{ "type": "Feature", "properties": { "id": 10408, "latitude": 44.64085436, "longitude": -63.57472085 }, "geometry": { "type": "Point", "coordinates": [ -63.57472085, 44.64085436 ] } },
{ "type": "Feature", "properties": { "id": 10483, "latitude": 44.64444106, "longitude": -63.59232057 }, "geometry": { "type": "Point", "coordinates": [ -63.59232057, 44.64444106 ] } },
{ "type": "Feature", "properties": { "id": 10616, "latitude": 44.64822281, "longitude": -63.57458123 }, "geometry": { "type": "Point", "coordinates": [ -63.57458123, 44.64822281 ] } },
{ "type": "Feature", "properties": { "id": 10660, "latitude": 44.65096672, "longitude": -63.57942461 }, "geometry": { "type": "Point", "coordinates": [ -63.57942461, 44.65096672 ] } },
{ "type": "Feature", "properties": { "id": 10716, "latitude": 44.64571879, "longitude": -63.58346816 }, "geometry": { "type": "Point", "coordinates": [ -63.58346816, 44.64571879 ] } },
{ "type": "Feature", "properties": { "id": 10762, "latitude": 44.64724445, "longitude": -63.57407367 }, "geometry": { "type": "Point", "coordinates": [ -63.57407367, 44.64724445 ] } },
{ "type": "Feature", "properties": { "id": 10847, "latitude": 44.6439, "longitude": -63.57841392 }, "geometry": { "type": "Point", "coordinates": [ -63.57841392, 44.6439 ] } },
{ "type": "Feature", "properties": { "id": 10939, "latitude": 44.64529513, "longitude": -63.57056011 }, "geometry": { "type": "Point", "coordinates": [ -63.57056011, 44.64529513 ] } },
{ "type": "Feature", "properties": { "id": 11256, "latitude": 44.64228186, "longitude": -63.58388314 }, "geometry": { "type": "Point", "coordinates": [ -63.58388314, 44.64228186 ] } },
{ "type": "Feature", "properties": { "id": 11257, "latitude": 44.64935259, "longitude": -63.57443995 }, "geometry": { "type": "Point", "coordinates": [ -63.57443995, 44.64935259 ] } },
{ "type": "Feature", "properties": { "id": 11260, "latitude": 44.64238963, "longitude": -63.59275357 }, "geometry": { "type": "Point", "coordinates": [ -63.59275357, 44.64238963 ] } },
{ "type": "Feature", "properties": { "id": 11308, "latitude": 44.64208258, "longitude": -63.57002257 }, "geometry": { "type": "Point", "coordinates": [ -63.57002257, 44.64208258 ] } },
{ "type": "Feature", "properties": { "id": 11328, "latitude": 44.64257479, "longitude": -63.57872428 }, "geometry": { "type": "Point", "coordinates": [ -63.57872428, 44.64257479 ] } },
{ "type": "Feature", "properties": { "id": 11394, "latitude": 44.65253989, "longitude": -63.58580441 }, "geometry": { "type": "Point", "coordinates": [ -63.58580441, 44.65253989 ] } },
{ "type": "Feature", "properties": { "id": 11402, "latitude": 44.64680101, "longitude": -63.58602551 }, "geometry": { "type": "Point", "coordinates": [ -63.58602551, 44.64680101 ] } },
{ "type": "Feature", "properties": { "id": 11456, "latitude": 44.65369148, "longitude": -63.57851978 }, "geometry": { "type": "Point", "coordinates": [ -63.57851978, 44.65369148 ] } },
{ "type": "Feature", "properties": { "id": 11462, "latitude": 44.6512036, "longitude": -63.57828228 }, "geometry": { "type": "Point", "coordinates": [ -63.57828228, 44.6512036 ] } },
{ "type": "Feature", "properties": { "id": 11629, "latitude": 44.65400363, "longitude": -63.58158422 }, "geometry": { "type": "Point", "coordinates": [ -63.58158422, 44.65400363 ] } },
{ "type": "Feature", "properties": { "id": 11673, "latitude": 44.65021103, "longitude": -63.58240025 }, "geometry": { "type": "Point", "coordinates": [ -63.58240025, 44.65021103 ] } },
{ "type": "Feature", "properties": { "id": 11758, "latitude": 44.64532251, "longitude": -63.57731077 }, "geometry": { "type": "Point", "coordinates": [ -63.57731077, 44.64532251 ] } },
{ "type": "Feature", "properties": { "id": 11847, "latitude": 44.64704496, "longitude": -63.59149011 }, "geometry": { "type": "Point", "coordinates": [ -63.59149011, 44.64704496 ] } },
{ "type": "Feature", "properties": { "id": 11876, "latitude": 44.65101841, "longitude": -63.57897639 }, "geometry": { "type": "Point", "coordinates": [ -63.57897639, 44.65101841 ] } },
{ "type": "Feature", "properties": { "id": 11881, "latitude": 44.64963656, "longitude": -63.57331489 }, "geometry": { "type": "Point", "coordinates": [ -63.57331489, 44.64963656 ] } },
{ "type": "Feature", "properties": { "id": 11924, "latitude": 44.64891019, "longitude": -63.59141641 }, "geometry": { "type": "Point", "coordinates": [ -63.59141641, 44.64891019 ] } },
{ "type": "Feature", "properties": { "id": 11927, "latitude": 44.6409533, "longitude": -63.57477258 }, "geometry": { "type": "Point", "coordinates": [ -63.57477258, 44.6409533 ] } },
{ "type": "Feature", "properties": { "id": 11944, "latitude": 44.65137829, "longitude": -63.58550255 }, "geometry": { "type": "Point", "coordinates": [ -63.58550255, 44.65137829 ] } },
{ "type": "Feature", "properties": { "id": 12007, "latitude": 44.65381887, "longitude": -63.59133584 }, "geometry": { "type": "Point", "coordinates": [ -63.59133584, 44.65381887 ] } },
{ "type": "Feature", "properties": { "id": 12064, "latitude": 44.64558416, "longitude": -63.57620347 }, "geometry": { "type": "Point", "coordinates": [ -63.57620347, 44.64558416 ] } },
{ "type": "Feature", "properties": { "id": 12072, "latitude": 44.64771863, "longitude": -63.57653633 }, "geometry": { "type": "Point", "coordinates": [ -63.57653633, 44.64771863 ] } },
{ "type": "Feature", "properties": { "id": 12139, "latitude": 44.65177567, "longitude": -63.58774309 }, "geometry": { "type": "Point", "coordinates": [ -63.58774309, 44.65177567 ] } },
{ "type": "Feature", "properties": { "id": 12235, "latitude": 44.64096338, "longitude": -63.56801718 }, "geometry": { "type": "Point", "coordinates": [ -63.56801718, 44.64096338 ] } },
{ "type": "Feature", "properties": { "id": 12280, "latitude": 44.65129506, "longitude": -63.58229673 }, "geometry": { "type": "Point", "coordinates": [ -63.58229673, 44.65129506 ] } },
{ "type": "Feature", "properties": { "id": 12387, "latitude": 44.64040191, "longitude": -63.56914157 }, "geometry": { "type": "Point", "coordinates": [ -63.56914157, 44.64040191 ] } },
{ "type": "Feature", "properties": { "id": 12424, "latitude": 44.64953625, "longitude": -63.58021832 }, "geometry": { "type": "Point", "coordinates": [ -63.58021832, 44.64953625 ] } },
{ "type": "Feature", "properties": { "id": 12445, "latitude": 44.64230745, "longitude": -63.58379443 }, "geometry": { "type": "Point", "coordinates": [ -63.58379443, 44.64230745 ] } },
{ "type": "Feature", "properties": { "id": 12512, "latitude": 44.64117267, "longitude": -63.58726512 }, "geometry": { "type": "Point", "coordinates": [ -63.58726512, 44.64117267 ] } },
{ "type": "Feature", "properties": { "id": 12531, "latitude": 44.64465456, "longitude": -63.57833961 }, "geometry": { "type": "Point", "coordinates": [ -63.57833961, 44.64465456 ] } },
{ "type": "Feature", "properties": { "id": 12599, "latitude": 44.64495585, "longitude": -63.57441747 }, "geometry": { "type": "Point", "coordinates": [ -63.57441747, 44.64495585 ] } },
{ "type": "Feature", "properties": { "id": 12604, "latitude": 44.64653666, "longitude": -63.59013355 }, "geometry": { "type": "Point", "coordinates": [ -63.59013355, 44.64653666 ] } },
{ "type": "Feature", "properties": { "id": 12740, "latitude": 44.64720573, "longitude": -63.59089418 }, "geometry": { "type": "Point", "coordinates": [ -63.59089418, 44.64720573 ] } },
{ "type": "Feature", "properties": { "id": 12745, "latitude": 44.65089688, "longitude": -63.59189671 }, "geometry": { "type": "Point", "coordinates": [ -63.59189671, 44.65089688 ] } },
{ "type": "Feature", "properties": { "id": 12877, "latitude": 44.64280784, "longitude": -63.57785989 }, "geometry": { "type": "Point", "coordinates": [ -63.57785989, 44.64280784 ] } },
{ "type": "Feature", "properties": { "id": 12998, "latitude": 44.64693813, "longitude": -63.57767196 }, "geometry": { "type": "Point", "coordinates": [ -63.57767196, 44.64693813 ] } },
{ "type": "Feature", "properties": { "id": 13065, "latitude": 44.64903483, "longitude": -63.57579717 }, "geometry": { "type": "Point", "coordinates": [ -63.57579717, 44.64903483 ] } },
{ "type": "Feature", "properties": { "id": 13069, "latitude": 44.64344345, "longitude": -63.57021637 }, "geometry": { "type": "Point", "coordinates": [ -63.57021637, 44.64344345 ] } },
{ "type": "Feature", "properties": { "id": 13138, "latitude": 44.64427787, "longitude": -63.58488421 }, "geometry": { "type": "Point", "coordinates": [ -63.58488421, 44.64427787 ] } },
{ "type": "Feature", "properties": { "id": 13144, "latitude": 44.64642146, "longitude": -63.57294228 }, "geometry": { "type": "Point", "coordinates": [ -63.57294228, 44.64642146 ] } },
{ "type": "Feature", "properties": { "id": 13306, "latitude": 44.65048351, "longitude": -63.58103758 }, "geometry": { "type": "Point", "coordinates": [ -63.58103758, 44.65048351 ] } },
{ "type": "Feature", "properties": { "id": 13311, "latitude": 44.65145777, "longitude": -63.58254091 }, "geometry": { "type": "Point", "coordinates": [ -63.58254091, 44.65145777 ] } },
{ "type": "Feature", "properties": { "id": 13478, "latitude": 44.64450561, "longitude": -63.58897493 }, "geometry": { "type": "Point", "coordinates": [ -63.58897493, 44.64450561 ] } },
{ "type": "Feature", "properties": { "id": 13582, "latitude": 44.64475106, "longitude": -63.57794483 }, "geometry": { "type": "Point", "coordinates": [ -63.57794483, 44.64475106 ] } },
{ "type": "Feature", "properties": { "id": 13602, "latitude": 44.64695675, "longitude": -63.59161901 }, "geometry": { "type": "Point", "coordinates": [ -63.59161901, 44.64695675 ] } },
{ "type": "Feature", "properties": { "id": 13684, "latitude": 44.6519941, "longitude": -63.57601601 }, "geometry": { "type": "Point", "coordinates": [ -63.57601601, 44.6519941 ] } },
{ "type": "Feature", "properties": { "id": 13745, "latitude": 44.64331305, "longitude": -63.57596344 }, "geometry": { "type": "Point", "coordinates": [ -63.57596344, 44.64331305 ] } },
{ "type": "Feature", "properties": { "id": 13814, "latitude": 44.64530025, "longitude": -63.57307823 }, "geometry": { "type": "Point", "coordinates": [ -63.57307823, 44.64530025 ] } },
{ "type": "Feature", "properties": { "id": 13820, "latitude": 44.65363511, "longitude": -63.58571354 }, "geometry": { "type": "Point", "coordinates": [ -63.58571354, 44.65363511 ] } },
{ "type": "Feature", "properties": { "id": 13928, "latitude": 44.64575727, "longitude": -63.57552672 }, "geometry": { "type": "Point", "coordinates": [ -63.57552672, 44.64575727 ] } },
{ "type": "Feature", "properties": { "id": 13946, "latitude": 44.65337217, "longitude": -63.58534551 }, "geometry": { "type": "Point", "coordinates": [ -63.58534551, 44.65337217 ] } },
{ "type": "Feature", "properties": { "id": 14033, "latitude": 44.65259453, "longitude": -63.58954879 }, "geometry": { "type": "Point", "coordinates": [ -63.58954879, 44.65259453 ] } },
{ "type": "Feature", "properties": { "id": 14046, "latitude": 44.640594, "longitude": -63.58936247 }, "geometry": { "type": "Point", "coordinates": [ -63.58936247, 44.640594 ] } },
{ "type": "Feature", "properties": { "id": 14064, "latitude": 44.64724298, "longitude": -63.59044246 }, "geometry": { "type": "Point", "coordinates": [ -63.59044246, 44.64724298 ] } },
{ "type": "Feature", "properties": { "id": 14117, "latitude": 44.64297082, "longitude": -63.57190727 }, "geometry": { "type": "Point", "coordinates": [ -63.57190727, 44.64297082 ] } },
{ "type": "Feature", "properties": { "id": 14155, "latitude": 44.64755953, "longitude": -63.5728032 }, "geometry": { "type": "Point", "coordinates": [ -63.5728032, 44.64755953 ] } },
{ "type": "Feature", "properties": { "id": 14239, "latitude": 44.6454694, "longitude": -63.57244464 }, "geometry": { "type": "Point", "coordinates": [ -63.57244464, 44.6454694 ] } },
{ "type": "Feature", "properties": { "id": 14247, "latitude": 44.64417981, "longitude": -63.57059237 }, "geometry": { "type": "Point", "coordinates": [ -63.57059237, 44.64417981 ] } },
{ "type": "Feature", "properties": { "id": 14297, "latitude": 44.65184019, "longitude": -63.58477595 }, "geometry": { "type": "Point", "coordinates": [ -63.58477595, 44.65184019 ] } },
{ "type": "Feature", "properties": { "id": 14309, "latitude": 44.65457031, "longitude": -63.5811219 }, "geometry": { "type": "Point", "coordinates": [ -63.5811219, 44.65457031 ] } },
{ "type": "Feature", "properties": { "id": 14313, "latitude": 44.64838371, "longitude": -63.57393997 }, "geometry": { "type": "Point", "coordinates": [ -63.57393997, 44.64838371 ] } },
{ "type": "Feature", "properties": { "id": 14335, "latitude": 44.64395534, "longitude": -63.59106904 }, "geometry": { "type": "Point", "coordinates": [ -63.59106904, 44.64395534 ] } },
{ "type": "Feature", "properties": { "id": 14448, "latitude": 44.64027956, "longitude": -63.58278207 }, "geometry": { "type": "Point", "coordinates": [ -63.58278207, 44.64027956 ] } }
]
}
