{"type":"FeatureCollection","crs":{"type":"name","properties":{"name":"EPSG:4326"}},"features":[{"type":"Feature","id":1,"geometry":{"type":"Point","coordinates":[-63.5702105792205,44.6644144778974]},"properties":{"GLOBALID":"67a1e56f-f4bd-4755-a1a9-7f4e98dd7dee","OBJECTID":1,"WASH_ID":"WSH75","BL_ID":"BL409","FAC_NAME":"ALDERNEY LANDING","CIV_ID":62759,"FULL_CIVIC":"2","STR_NAME":"OCHTERLONEY","STR_TYPE":"ST","GSA_NAME":"DARTMOUTH","DISTRICT":"5","WASHTYPE":"GENSPEC","STALL":"Y","BYCHGTBL":"Y","UNCHGTBL":"N","STATUS":"GENUSE","ADDDATE":"Mon, 11 Aug 2025 14:37:32 GMT","MODDATE":"Mon, 11 Aug 2025 14:42:09 GMT","SOURCE":"PARKS","SACC":"IN","OPEN_":"ALL"}},{"type":"Feature","id":2,"geometry":{"type":"Point","coordinates":[-63.5753845689315,44.6426918827473]},"properties":{"GLOBALID":"d13f5682-7877-4b9d-8a4d-61d9048a08f6","OBJECTID":2,"WASH_ID":"WSH42","BL_ID":"BL88426","FAC_NAME":"HALIFAX CENTRAL LIBRARY","CIV_ID":75661,"FULL_CIVIC":"5440","STR_NAME":"SPRING GARDEN","STR_TYPE":"RD","GSA_NAME":"HALIFAX","DISTRICT":"07","WASHTYPE":"BOTH","STALL":"Y","BYCHGTBL":"Y","UNCHGTBL":"N","STATUS":"GENUSE","ADDDATE":"Thu, 16 Jul 2020 22:18:20 GMT","MODDATE":"Thu, 23 Jul 2020 15:25:52 GMT","SOURCE":"LIBRARIES","SACC":"IN","OPEN_":"ALL"}},{"type":"Feature","id":3,"geometry":{"type":"Point","coordinates":[-63.6632921386686,44.6608335456184]},"properties":{"GLOBALID":"228d2098-4dab-4b68-9bba-792358f82b4f","OBJECTID":3,"WASH_ID":"WSH24","BL_ID":"BL88657","FAC_NAME":"LACEWOOD TERMINAL","CIV_ID":163117,"FULL_CIVIC":"320","STR_NAME":"LACEWOOD","STR_TYPE":"AVE","GSA_NAME":"HALIFAX","DISTRICT":"12","WASHTYPE":"GENSPEC","STALL":"Y","BYCHGTBL":"Y","UNCHGTBL":null,"STATUS":"GENUSE","ADDDATE":"Wed, 15 Jul 2020 20:59:01 GMT","MODDATE":"Thu, 16 Jul 2020 22:27:55 GMT","SOURCE":"FACILITIES","SACC":"IN","OPEN_":"ALL"}},{"type":"Feature","id":4,"geometry":{"type":"Point","coordinates":[-63.553235341672,44.7068792028844]},"properties":{"GLOBALID":"ce0408fa-6ba7-4f5b-893d-b5e886c69753","OBJECTID":4,"WASH_ID":"WSH77","BL_ID":"SHUBIE PARK WASH","FAC_NAME":"SHUBIE PARK WASHROOM & LAUNDRY FACILITIY","CIV_ID":106272,"FULL_CIVIC":"30","STR_NAME":"JOHN BRENTON","STR_TYPE":"DR","GSA_NAME":"DARTMOUTH","DISTRICT":"6","WASHTYPE":"GENSPEC","STALL":null,"BYCHGTBL":null,"UNCHGTBL":null,"STATUS":"CLIENT","ADDDATE":"Mon, 11 Aug 2025 14:47:16 GMT","MODDATE":"Mon, 11 Aug 2025 14:49:37 GMT","SOURCE":null,"SACC":null,"OPEN_":"SEASON"}},{"type":"Feature","id":5,"geometry":{"type":"Point","coordinates":[-63.4899908455839,44.6870054255094]},"properties":{"GLOBALID":"d13b51f4-7510-4a90-a1f3-52a6edb59476","OBJECTID":5,"WASH_ID":"WSH1","BL_ID":"BL102428","FAC_NAME":"COLE HARBOUR COMMONS WASHROOMS ","CIV_ID":144751,"FULL_CIVIC":"460","STR_NAME":"AUBURN","STR_TYPE":"DR","GSA_NAME":"COLE HARBOUR","DISTRICT":"04","WASHTYPE":"GENSPEC","STALL":"Y","BYCHGTBL":"N","UNCHGTBL":"N","STATUS":"GENUSE","ADDDATE":"Wed, 15 Jul 2020 20:59:01 GMT","MODDATE":"Mon, 11 Aug 2025 15:06:23 GMT","SOURCE":"PARKS","SACC":"IN","OPEN_":"SEASON"}},{"type":"Feature","id":6,"geometry":{"type":"Point","coordinates":[-63.6554952668556,44.7294640342677]},"properties":{"GLOBALID":"388f2aec-9ab3-4856-aa25-a5a43d83ccd8","OBJECTID":6,"WASH_ID":"WSH36","BL_ID":"BL966","FAC_NAME":"BEDFORD PUBLIC LIBRARY","CIV_ID":46571,"FULL_CIVIC":"15","STR_NAME":"DARTMOUTH","STR_TYPE":"RD","GSA_NAME":"BEDFORD","DISTRICT":"16","WASHTYPE":"BOTH","STALL":"Y","BYCHGTBL":"Y","UNCHGTBL":"N","STATUS":"GENUSE","ADDDATE":"Thu, 16 Jul 2020 21:48:01 GMT","MODDATE":"Thu, 16 Jul 2020 22:27:57 GMT","SOURCE":"LIBRARIES","SACC":"IN","OPEN_":"ALL"}},{"type":"Feature","id":7,"geometry":{"type":"Point","coordinates":[-63.5617264342314,44.6793425206591]},"properties":{"GLOBALID":"bd236d81-a8ba-417c-91d4-6079711f03d3","OBJECTID":7,"WASH_ID":"WSH2","BL_ID":"BL282","FAC_NAME":"BIRCH COVE PARK FACILITY","CIV_ID":127124,"FULL_CIVIC":"44","STR_NAME":"OAKDALE","STR_TYPE":"CRES","GSA_NAME":"DARTMOUTH","DISTRICT":"05","WASHTYPE":"GENSPEC","STALL":"Y","BYCHGTBL":"N","UNCHGTBL":"N","STATUS":"GENUSE","ADDDATE":"Wed, 15 Jul 2020 20:59:01 GMT","MODDATE":"Mon, 11 Aug 2025 15:20:49 GMT","SOURCE":"PARKS","SACC":"IN","OPEN_":"SEASON"}},{"type":"Feature","id":8,"geometry":{"type":"Point","coordinates":[-62.527213613706,44.9174920989975]},"properties":{"GLOBALID":"472d7884-9c02-4851-a810-917a0b069b7b","OBJECTID":8,"WASH_ID":"WSH41","BL_ID":"BL278","FAC_NAME":"SHEET HARBOUR PUBLIC LIBRARY","CIV_ID":92034,"FULL_CIVIC":"22756","STR_NAME":"HIGHWAY 7","STR_TYPE":null,"GSA_NAME":"SHEET HARBOUR","DISTRICT":"02","WASHTYPE":"GENSPEC","STALL":"N","BYCHGTBL":"N","UNCHGTBL":"N","STATUS":"GENUSE","ADDDATE":"Thu, 16 Jul 2020 22:14:50 GMT","MODDATE":"Thu, 16 Jul 2020 22:27:58 GMT","SOURCE":"LIBRARIES","SACC":"IN","OPEN_":"ALL"}},{"type":"Feature","id":9,"geometry":{"type":"Point","coordinates":[-63.6670949731676,44.65878097749]},"properties":{"GLOBALID":"0a92e30f-2fbe-4a1e-beaa-5c55f65cb9f7","OBJECTID":9,"WASH_ID":"WSH32","BL_ID":"BL272","FAC_NAME":"KESHEN GOODMAN PUBLIC LIBRARY","CIV_ID":15563,"FULL_CIVIC":"330","STR_NAME":"LACEWOOD","STR_TYPE":"DR","GSA_NAME":"HALIFAX","DISTRICT":"12","WASHTYPE":"BOTH","STALL":"Y","BYCHGTBL":"Y","UNCHGTBL":"N","STATUS":"GENUSE","ADDDATE":"Thu, 16 Jul 2020 21:27:34 GMT","MODDATE":"Thu, 23 Jul 2020 15:25:39 GMT","SOURCE":"LIBRARIES","SACC":"IN","OPEN_":"ALL"}},{"type":"Feature","id":10,"geometry":{"type":"Point","coordinates":[-63.5856962842639,44.6541188933824]},"properties":{"GLOBALID":"0f7ff735-a155-405f-b04a-74966e84245d","OBJECTID":10,"WASH_ID":"WSH43","BL_ID":"BL756","FAC_NAME":"HALIFAX NORTH MEMORIAL PUBLIC LIBRARY","CIV_ID":67898,"FULL_CIVIC":"2285","STR_NAME":"GOTTINGEN","STR_TYPE":"ST","GSA_NAME":"HALIFAX","DISTRICT":"08","WASHTYPE":"BOTH","STALL":"Y","BYCHGTBL":"Y","UNCHGTBL":"N","STATUS":"GENUSE","ADDDATE":"Thu, 16 Jul 2020 22:21:07 GMT","MODDATE":"Thu, 23 Jul 2020 15:25:57 GMT","SOURCE":"LIBRARIES","SACC":"IN","OPEN_":"ALL"}},{"type":"Feature","id":11,"geometry":{"type":"Point","coordinates":[-63.5991470276092,44.6644233466669]},"properties":{"GLOBALID":"a0d059ca-122f-4a6d-bde5-4fe9f576003f","OBJECTID":11,"WASH_ID":"WSH62","BL_ID":"BL156902","FAC_NAME":"NEEDHAM WASHROOM FACILITY","CIV_ID":173977,"FULL_CIVIC":"3177","STR_NAME":"NEEDHAM","STR_TYPE":"ST","GSA_NAME":"HALIFAX","DISTRICT":"08","WASHTYPE":"UNIVERS","STALL":"Y","BYCHGTBL":"Y","UNCHGTBL":"Y","STATUS":"GENUSE","ADDDATE":"Tue, 03 Jan 2023 16:27:46 GMT","MODDATE":"Tue, 03 Jan 2023 16:56:54 GMT","SOURCE":null,"SACC":"IN","OPEN_":"ALL"}},{"type":"Feature","id":12,"geometry":{"type":"Point","coordinates":[-63.5897116053619,44.6509738448632]},"properties":{"GLOBALID":"cd8ed584-921a-4c35-b5ee-6b80f2ef8800","OBJECTID":12,"WASH_ID":"WSH9","BL_ID":"BL841","FAC_NAME":"NORTH COMMONS PUBLIC WASHROOM FACILITY","CIV_ID":135666,"FULL_CIVIC":"5816","STR_NAME":"CUNARD","STR_TYPE":"ST","GSA_NAME":"HALIFAX","DISTRICT":"08","WASHTYPE":"GENSPEC","STALL":"Y","BYCHGTBL":"N","UNCHGTBL":"N","STATUS":"GENUSE","ADDDATE":"Wed, 15 Jul 2020 20:59:01 GMT","MODDATE":"Mon, 11 Aug 2025 15:03:38 GMT","SOURCE":"PARKS","SACC":"IN","OPEN_":"SEASON"}},{"type":"Feature","id":13,"geometry":{"type":"Point","coordinates":[-63.532614098405,44.6872054589748]},"properties":{"GLOBALID":"cbebc94c-0794-4547-9c36-a83100561842","OBJECTID":13,"WASH_ID":"WSH28","BL_ID":"BL153307","FAC_NAME":"BEAZLEY PARK WASHROOM FACILITY","CIV_ID":140850,"FULL_CIVIC":"50","STR_NAME":"CALEDONIA","STR_TYPE":"RD","GSA_NAME":"DARTMOUTH","DISTRICT":"06","WASHTYPE":"UNIVERS","STALL":"Y","BYCHGTBL":"Y","UNCHGTBL":"Y","STATUS":"CLIENT","ADDDATE":"Wed, 15 Jul 2020 20:59:01 GMT","MODDATE":"Mon, 11 Aug 2025 15:04:52 GMT","SOURCE":"PARKS","SACC":"IN","OPEN_":"SEASON"}},{"type":"Feature","id":14,"geometry":{"type":"Point","coordinates":[-63.5215834047569,44.668582048826]},"properties":{"GLOBALID":"60646e56-aa8c-4a04-a7da-1efe9ac4ae5c","OBJECTID":14,"WASH_ID":"WSH38","BL_ID":"BL965","FAC_NAME":"WOODLAWN PUBLIC LIBRARY","CIV_ID":59586,"FULL_CIVIC":"31","STR_NAME":"EISENER","STR_TYPE":"BLVD","GSA_NAME":"DARTMOUTH","DISTRICT":"03","WASHTYPE":"BOTH","STALL":"Y","BYCHGTBL":"Y","UNCHGTBL":"N","STATUS":"GENUSE","ADDDATE":"Thu, 16 Jul 2020 21:56:00 GMT","MODDATE":"Thu, 23 Jul 2020 15:25:42 GMT","SOURCE":"LIBRARIES","SACC":"IN","OPEN_":"ALL"}},{"type":"Feature","id":15,"geometry":{"type":"Point","coordinates":[-63.571715874464,44.649688313644]},"properties":{"GLOBALID":"62cfd62d-c381-41ca-97cd-4f4567622e49","OBJECTID":15,"WASH_ID":"WSH22","BL_ID":"BL710","FAC_NAME":"HALIFAX FERRY TERMINAL","CIV_ID":71382,"FULL_CIVIC":"5077","STR_NAME":"GEORGE","STR_TYPE":"ST","GSA_NAME":"HALIFAX","DISTRICT":"07","WASHTYPE":"BOTH","STALL":"Y","BYCHGTBL":"Y","UNCHGTBL":null,"STATUS":"GENUSE","ADDDATE":"Wed, 15 Jul 2020 20:59:01 GMT","MODDATE":"Thu, 16 Jul 2020 22:27:55 GMT","SOURCE":"FACILITIES","SACC":"IN","OPEN_":"ALL"}},{"type":"Feature","id":16,"geometry":{"type":"Point","coordinates":[-63.6990299440758,44.7680877336863]},"properties":{"GLOBALID":"36ed75e9-9415-4127-9ed3-26461a6ebc85","OBJECTID":16,"WASH_ID":"WSH26","BL_ID":"BL211","FAC_NAME":"SACKVILLE METRO LINK TERMINAL","CIV_ID":42903,"FULL_CIVIC":"7","STR_NAME":"WALKER","STR_TYPE":"AVE","GSA_NAME":"LOWER SACKVILLE","DISTRICT":"15","WASHTYPE":"UNIVERS","STALL":"Y","BYCHGTBL":"N","UNCHGTBL":"N","STATUS":"GENUSE","ADDDATE":"Wed, 15 Jul 2020 20:59:01 GMT","MODDATE":"Mon, 11 Aug 2025 15:28:41 GMT","SOURCE":"FACILITIES","SACC":"IN","OPEN_":"ALL"}},{"type":"Feature","id":17,"geometry":{"type":"Point","coordinates":[-63.5734209631115,44.62151129236]},"properties":{"GLOBALID":"1b89201a-d1ac-4ae1-8b43-f2a103c4ddc4","OBJECTID":17,"WASH_ID":"WSH12","BL_ID":"BL793","FAC_NAME":"POINT PLEASANT PARK HARBOUR SOLUTIONS WASHROOM","CIV_ID":135522,"FULL_CIVIC":"5906","STR_NAME":"CHAIN ROCK","STR_TYPE":"DR","GSA_NAME":"HALIFAX","DISTRICT":"07","WASHTYPE":null,"STALL":null,"BYCHGTBL":null,"UNCHGTBL":null,"STATUS":"GENUSE","ADDDATE":"Wed, 15 Jul 2020 20:59:01 GMT","MODDATE":"Thu, 16 Jul 2020 22:27:54 GMT","SOURCE":"PARKS","SACC":"IN","OPEN_":"ALL"}},{"type":"Feature","id":18,"geometry":{"type":"Point","coordinates":[-63.5689560873161,44.6639556997974]},"properties":{"GLOBALID":"73565be1-1957-4b8b-810f-2fffa3066512","OBJECTID":18,"WASH_ID":"WSH21","BL_ID":"BL773","FAC_NAME":"DARTMOUTH FERRY TERMINAL","CIV_ID":124768,"FULL_CIVIC":"88","STR_NAME":"ALDERNEY","STR_TYPE":"DR","GSA_NAME":"DARTMOUTH","DISTRICT":"05","WASHTYPE":"GENSPEC","STALL":"Y","BYCHGTBL":"Y","UNCHGTBL":"N","STATUS":"GENUSE","ADDDATE":"Wed, 15 Jul 2020 20:59:01 GMT","MODDATE":"Mon, 11 Aug 2025 15:08:03 GMT","SOURCE":"FACILITIES","SACC":"IN","OPEN_":"ALL"}},{"type":"Feature","id":19,"geometry":{"type":"Point","coordinates":[-63.5691332350902,44.6644650626414]},"properties":{"GLOBALID":"8d7f9b04-0f2f-45c8-82c4-fc256fb89c74","OBJECTID":19,"WASH_ID":"WSH34","BL_ID":"BL448","FAC_NAME":"ALDERNEY GATE PUBLIC LIBRARY","CIV_ID":135877,"FULL_CIVIC":"60","STR_NAME":"ALDERNEY","STR_TYPE":"DR","GSA_NAME":"DARTMOUTH","DISTRICT":"05","WASHTYPE":"BOTH","STALL":"Y","BYCHGTBL":"Y","UNCHGTBL":"N","STATUS":"GENUSE","ADDDATE":"Thu, 16 Jul 2020 21:35:15 GMT","MODDATE":"Thu, 16 Jul 2020 22:27:57 GMT","SOURCE":"LIBRARIES","SACC":"IN","OPEN_":"ALL"}},{"type":"Feature","id":20,"geometry":{"type":"Point","coordinates":[-63.6094979499122,44.6203168098462]},"properties":{"GLOBALID":"8f11325a-03d3-461b-9178-d42206a576c1","OBJECTID":20,"WASH_ID":"WSH15","BL_ID":"BL88574","FAC_NAME":"RAVENSCRAIG DR PARK WASHROOM FACILITY","CIV_ID":84151,"FULL_CIVIC":"15","STR_NAME":"RAVENSCRAIG","STR_TYPE":"DR","GSA_NAME":"HALIFAX","DISTRICT":"11","WASHTYPE":"UNIVERS","STALL":"Y","BYCHGTBL":"N","UNCHGTBL":"N","STATUS":"GENUSE","ADDDATE":"Wed, 15 Jul 2020 20:59:01 GMT","MODDATE":"Mon, 11 Aug 2025 15:24:38 GMT","SOURCE":"PARKS","SACC":"IN","OPEN_":"SEASON"}},{"type":"Feature","id":21,"geometry":{"type":"Point","coordinates":[-63.6879937015342,44.7687870239733]},"properties":{"GLOBALID":"f2aca185-adea-425c-b327-00fd1c78e1f4","OBJECTID":21,"WASH_ID":"WSH37","BL_ID":"BL820","FAC_NAME":"SACKVILLE PUBLIC LIBRARY","CIV_ID":43018,"FULL_CIVIC":"636","STR_NAME":"SACKVILLE","STR_TYPE":"DR","GSA_NAME":"LOWER SACKVILLE","DISTRICT":"15","WASHTYPE":"BOTH","STALL":"Y","BYCHGTBL":"Y","UNCHGTBL":"N","STATUS":"GENUSE","ADDDATE":"Thu, 16 Jul 2020 21:52:22 GMT","MODDATE":"Thu, 16 Jul 2020 22:27:57 GMT","SOURCE":"LIBRARIES","SACC":"IN","OPEN_":"ALL"}},{"type":"Feature","id":22,"geometry":{"type":"Point","coordinates":[-63.5394534245156,44.675388302161]},"properties":{"GLOBALID":"c4f4022f-ceaf-45f5-a970-d047ee16522b","OBJECTID":22,"WASH_ID":"WSH51","BL_ID":"BL153306","FAC_NAME":"PENHORN WASHROOM","CIV_ID":139469,"FULL_CIVIC":"70","STR_NAME":"PENHORN","STR_TYPE":"DR","GSA_NAME":"DARTMOUTH","DISTRICT":"06","WASHTYPE":"UNIVERS","STALL":"Y","BYCHGTBL":"Y","UNCHGTBL":"Y","STATUS":"CLOSED","ADDDATE":"Wed, 30 Sep 2020 14:56:05 GMT","MODDATE":"Wed, 05 Jan 2022 19:53:30 GMT","SOURCE":"PARKS","SACC":"IN","OPEN_":"SEASON"}},{"type":"Feature","id":23,"geometry":{"type":"Point","coordinates":[-63.56625203614,44.6271769075443]},"properties":{"GLOBALID":"f51530a6-6707-45eb-8dbd-1ac8761311f4","OBJECTID":23,"WASH_ID":"WSH19","BL_ID":"BL369","FAC_NAME":"SHAKESPEARE BY THE SEA BOX OFFICE","CIV_ID":82592,"FULL_CIVIC":"5480","STR_NAME":"POINT PLEASANT","STR_TYPE":"DR","GSA_NAME":"HALIFAX","DISTRICT":"07","WASHTYPE":"GENSPEC","STALL":"N","BYCHGTBL":"N","UNCHGTBL":"N","STATUS":"GENUSE","ADDDATE":"Wed, 15 Jul 2020 20:59:01 GMT","MODDATE":"Mon, 11 Aug 2025 15:22:38 GMT","SOURCE":"PARKS","SACC":"IN","OPEN_":"SEASON"}},{"type":"Feature","id":24,"geometry":{"type":"Point","coordinates":[-63.1485979643447,44.7863830907269]},"properties":{"GLOBALID":"3487a027-ceef-4ec3-a44e-42aebe5191fe","OBJECTID":24,"WASH_ID":"WSH40","BL_ID":"BL55","FAC_NAME":"MUSQUODOBOIT PUBLIC LIBRARY","CIV_ID":97749,"FULL_CIVIC":"7900","STR_NAME":"HIGHWAY 7","STR_TYPE":null,"GSA_NAME":"MUSQUODOBOIT HARBOUR","DISTRICT":"02","WASHTYPE":"BOTH","STALL":"Y","BYCHGTBL":"Y","UNCHGTBL":"N","STATUS":"GENUSE","ADDDATE":"Thu, 16 Jul 2020 22:11:03 GMT","MODDATE":"Thu, 23 Jul 2020 15:25:49 GMT","SOURCE":"LIBRARIES","SACC":"IN","OPEN_":"ALL"}},{"type":"Feature","id":25,"geometry":{"type":"Point","coordinates":[-63.6046124793075,44.6376182568361]},"properties":{"GLOBALID":"e72e57fb-d167-42b0-8889-c6a6b239f883","OBJECTID":25,"WASH_ID":"WSH79","BL_ID":"BL529","FAC_NAME":"ST MARY'S BOAT CLUB PARK WASHROOM FACILITY","CIV_ID":78528,"FULL_CIVIC":"1641","STR_NAME":"FAIRFIELD","STR_TYPE":"RD","GSA_NAME":"HALIFAX","DISTRICT":"7","WASHTYPE":"UNIVERS","STALL":null,"BYCHGTBL":null,"UNCHGTBL":null,"STATUS":"GENUSE","ADDDATE":"Mon, 11 Aug 2025 15:00:29 GMT","MODDATE":"Mon, 11 Aug 2025 15:02:49 GMT","SOURCE":"PARKS","SACC":"IN","OPEN_":"SEASON"}},{"type":"Feature","id":26,"geometry":{"type":"Point","coordinates":[-63.5057062669134,44.6698571420566]},"properties":{"GLOBALID":"1c65c496-67b6-47a8-b20c-060652756e8c","OBJECTID":26,"WASH_ID":"WSH25","BL_ID":"BL344","FAC_NAME":"PORTLAND HILLS TRANSIT TERMINAL","CIV_ID":133667,"FULL_CIVIC":"866","STR_NAME":"PORTLAND","STR_TYPE":"ST","GSA_NAME":"DARTMOUTH","DISTRICT":"03","WASHTYPE":"UNIVERS","STALL":"Y","BYCHGTBL":"N","UNCHGTBL":"N","STATUS":"GENUSE","ADDDATE":"Wed, 15 Jul 2020 20:59:01 GMT","MODDATE":"Mon, 11 Aug 2025 15:23:25 GMT","SOURCE":"FACILITIES","SACC":"IN","OPEN_":"ALL"}},{"type":"Feature","id":27,"geometry":{"type":"Point","coordinates":[-63.6714203127516,44.7156733228093]},"properties":{"GLOBALID":"54992c23-5a04-4046-ad5a-bc209c1f8ac0","OBJECTID":27,"WASH_ID":"WSH18","BL_ID":"BL77688","FAC_NAME":"DEWOLF PARK WASHROOM FACILITY","CIV_ID":47337,"FULL_CIVIC":"150","STR_NAME":"WATERFRONT","STR_TYPE":"DR","GSA_NAME":"BEDFORD","DISTRICT":"16","WASHTYPE":"GENSPEC","STALL":"Y","BYCHGTBL":"Y","UNCHGTBL":"N","STATUS":"GENUSE","ADDDATE":"Wed, 15 Jul 2020 20:59:01 GMT","MODDATE":"Mon, 11 Aug 2025 15:29:51 GMT","SOURCE":"PARKS","SACC":"IN","OPEN_":"ALL"}},{"type":"Feature","id":28,"geometry":{"type":"Point","coordinates":[-63.5975781181689,44.6295525118753]},"properties":{"GLOBALID":"e14fe5d0-a565-4f36-b702-2af10999a17d","OBJECTID":28,"WASH_ID":"WSH13","BL_ID":"BL78605","FAC_NAME":"SIR SANDFORD FLEMING PARK CANTEEN & WASHROOM FACILITY","CIV_ID":169149,"FULL_CIVIC":"150","STR_NAME":"DINGLE","STR_TYPE":"RD","GSA_NAME":"HALIFAX","DISTRICT":"11","WASHTYPE":null,"STALL":null,"BYCHGTBL":null,"UNCHGTBL":null,"STATUS":"GENUSE","ADDDATE":"Wed, 15 Jul 2020 20:59:01 GMT","MODDATE":"Thu, 16 Jul 2020 22:27:54 GMT","SOURCE":"PARKS","SACC":"IN","OPEN_":"SEASON"}},{"type":"Feature","id":29,"geometry":{"type":"Point","coordinates":[-63.4736900892018,44.6074033761617]},"properties":{"GLOBALID":"f4989018-1142-444a-9944-8cfa11c16e4d","OBJECTID":29,"WASH_ID":"WSH7","BL_ID":"BL103516","FAC_NAME":"EASTERN PASSAGE COMMONS WASHROOM FACILITY","CIV_ID":145703,"FULL_CIVIC":"110","STR_NAME":"OCEANVIEW SCHOOL","STR_TYPE":"RD","GSA_NAME":"EASTERN PASSAGE","DISTRICT":"03","WASHTYPE":"GENSPEC","STALL":"Y","BYCHGTBL":"Y","UNCHGTBL":"N","STATUS":"CLIENT","ADDDATE":"Wed, 15 Jul 2020 20:59:01 GMT","MODDATE":"Mon, 11 Aug 2025 15:21:43 GMT","SOURCE":"PARKS","SACC":"IN","OPEN_":"SEASON"}},{"type":"Feature","id":30,"geometry":{"type":"Point","coordinates":[-63.5815334148804,44.6420597556371]},"properties":{"GLOBALID":"d65b38eb-4587-4d70-9cab-a25c3176d37b","OBJECTID":30,"WASH_ID":"WSH11","BL_ID":"BL941","FAC_NAME":"PUBLIC GARDENS MEN'S WASHROOM FACILITY","CIV_ID":76168,"FULL_CIVIC":"5771","STR_NAME":"SPRING GARDEN","STR_TYPE":"RD","GSA_NAME":"HALIFAX","DISTRICT":"07","WASHTYPE":"GENSPEC","STALL":"Y","BYCHGTBL":"N","UNCHGTBL":"N","STATUS":"GENUSE","ADDDATE":"Wed, 15 Jul 2020 20:59:01 GMT","MODDATE":"Mon, 11 Aug 2025 15:26:15 GMT","SOURCE":"PARKS","SACC":"IN","OPEN_":"SEASON"}},{"type":"Feature","id":31,"geometry":{"type":"Point","coordinates":[-63.5818419996553,44.6419789158161]},"properties":{"GLOBALID":"5eed6291-2920-4422-a50b-ef06f37255e9","OBJECTID":31,"WASH_ID":"WSH10","BL_ID":"BL942","FAC_NAME":"PUBLIC GARDENS WOMEN'S WASHROOM FACILITY","CIV_ID":76168,"FULL_CIVIC":"5771","STR_NAME":"SPRING GARDEN","STR_TYPE":"RD","GSA_NAME":"HALIFAX","DISTRICT":"07","WASHTYPE":"GENSPEC","STALL":"Y","BYCHGTBL":"N","UNCHGTBL":"N","STATUS":"GENUSE","ADDDATE":"Wed, 15 Jul 2020 20:59:01 GMT","MODDATE":"Mon, 11 Aug 2025 15:26:54 GMT","SOURCE":"PARKS","SACC":"IN","OPEN_":"SEASON"}},{"type":"Feature","id":32,"geometry":{"type":"Point","coordinates":[-63.6946380680753,44.7364898668485]},"properties":{"GLOBALID":"dc6c68b3-37e4-47ce-9274-db641bf31cf8","OBJECTID":32,"WASH_ID":"WSH17","BL_ID":"BL115415","FAC_NAME":"SANDY LAKE BEACH WASHROOM FACILITY","CIV_ID":130307,"FULL_CIVIC":"115","STR_NAME":"SMITHS","STR_TYPE":"RD","GSA_NAME":"BEDFORD","DISTRICT":"14","WASHTYPE":"GENSPEC","STALL":"N","BYCHGTBL":"N","UNCHGTBL":"N","STATUS":"BEACH","ADDDATE":"Wed, 15 Jul 2020 20:59:01 GMT","MODDATE":"Mon, 11 Aug 2025 15:25:46 GMT","SOURCE":"PARKS","SACC":"IN","OPEN_":"SEASON"}},{"type":"Feature","id":33,"geometry":{"type":"Point","coordinates":[-63.549466185013,44.6491512151778]},"properties":{"GLOBALID":"d3a64438-62ec-4de7-aec3-997c87dd915a","OBJECTID":33,"WASH_ID":"WSH29","BL_ID":"BL316","FAC_NAME":"WOODSIDE FERRY TERMINAL","CIV_ID":71865,"FULL_CIVIC":"9","STR_NAME":"ATLANTIC","STR_TYPE":"ST","GSA_NAME":"DARTMOUTH","DISTRICT":"05","WASHTYPE":"UNIVERS","STALL":"Y","BYCHGTBL":"Y","UNCHGTBL":"Y","STATUS":"GENUSE","ADDDATE":"Wed, 15 Jul 2020 20:59:01 GMT","MODDATE":"Mon, 11 Aug 2025 15:07:12 GMT","SOURCE":"FACILITIES","SACC":"IN","OPEN_":"ALL"}},{"type":"Feature","id":34,"geometry":{"type":"Point","coordinates":[-63.553443497493,44.7022928568494]},"properties":{"GLOBALID":"10899bfc-57b1-44dd-983a-c6bd7143603c","OBJECTID":34,"WASH_ID":"WSH5","BL_ID":"BL947","FAC_NAME":"SHUBIE PARK WASHROOM FACILITY","CIV_ID":107758,"FULL_CIVIC":"54","STR_NAME":"LOCKS","STR_TYPE":"RD","GSA_NAME":"DARTMOUTH","DISTRICT":"06","WASHTYPE":"UNIVERS","STALL":"Y","BYCHGTBL":"Y","UNCHGTBL":"N","STATUS":"GENUSE","ADDDATE":"Wed, 15 Jul 2020 20:59:01 GMT","MODDATE":"Mon, 11 Aug 2025 15:09:07 GMT","SOURCE":"PARKS","SACC":"IN","OPEN_":"ALL"}},{"type":"Feature","id":35,"geometry":{"type":"Point","coordinates":[-63.6181906513709,44.609190593315]},"properties":{"GLOBALID":"0eea95c8-2f24-419c-9958-4851a92d1703","OBJECTID":35,"WASH_ID":"WSH31","BL_ID":"BL296","FAC_NAME":"CAPTAIN WILLIAM SPRY PUBLIC LIBRARY","CIV_ID":23945,"FULL_CIVIC":"16","STR_NAME":"SUSSEX","STR_TYPE":"ST","GSA_NAME":"HALIFAX","DISTRICT":"11","WASHTYPE":"UNIVERS","STALL":"Y","BYCHGTBL":"N","UNCHGTBL":"N","STATUS":"GENUSE","ADDDATE":"Thu, 16 Jul 2020 21:23:36 GMT","MODDATE":"Thu, 16 Jul 2020 22:27:56 GMT","SOURCE":"LIBRARIES","SACC":"IN","OPEN_":"ALL"}},{"type":"Feature","id":36,"geometry":{"type":"Point","coordinates":[-63.5744232952207,44.6704889483308]},"properties":{"GLOBALID":"dd678d77-0534-465a-9491-caf74b7b69db","OBJECTID":36,"WASH_ID":"WSH23","BL_ID":"BL78630","FAC_NAME":"DARTMOUTH BRIDGE TRANSIT TERMINAL","CIV_ID":127072,"FULL_CIVIC":"24","STR_NAME":"NANTUCKET","STR_TYPE":"AVE","GSA_NAME":"DARTMOUTH","DISTRICT":"05","WASHTYPE":"GENSPEC","STALL":"Y","BYCHGTBL":"Y","UNCHGTBL":"N","STATUS":"GENUSE","ADDDATE":"Wed, 15 Jul 2020 20:59:01 GMT","MODDATE":"Mon, 11 Aug 2025 15:11:11 GMT","SOURCE":"FACILITIES","SACC":"IN","OPEN_":"ALL"}},{"type":"Feature","id":37,"geometry":{"type":"Point","coordinates":[-64.0615843432416,44.6388401609]},"properties":{"GLOBALID":"82b1d3d8-8a33-4fe4-ab35-6e61ad472468","OBJECTID":37,"WASH_ID":"WSH30","BL_ID":"BL589","FAC_NAME":"J D SHATFORD MEMORIAL LIBRARY","CIV_ID":22389,"FULL_CIVIC":"10353","STR_NAME":"ST MARGARETS BAY","STR_TYPE":"RD","GSA_NAME":"HUBBARDS","DISTRICT":"13","WASHTYPE":"UNIVERS","STALL":"N","BYCHGTBL":"N","UNCHGTBL":"N","STATUS":"GENUSE","ADDDATE":"Thu, 16 Jul 2020 19:27:18 GMT","MODDATE":"Thu, 16 Jul 2020 22:27:56 GMT","SOURCE":"LIBRARIES","SACC":"IN","OPEN_":"ALL"}},{"type":"Feature","id":38,"geometry":{"type":"Point","coordinates":[-63.5506048059238,44.6812034391469]},"properties":{"GLOBALID":"e1f66c2e-04e2-4879-b0f7-14f7625c75b7","OBJECTID":38,"WASH_ID":"WSH3","BL_ID":"BL158615","FAC_NAME":"KIWANIS GRAHAMS GROVE PARK WASHROOMS","CIV_ID":51781,"FULL_CIVIC":"45","STR_NAME":"GRAHAMS","STR_TYPE":"GRV","GSA_NAME":"DARTMOUTH","DISTRICT":"05","WASHTYPE":"UNIVERS","STALL":"Y","BYCHGTBL":"Y","UNCHGTBL":"Y","STATUS":"GENUSE","ADDDATE":"Wed, 15 Jul 2020 20:59:01 GMT","MODDATE":"Mon, 11 Aug 2025 14:59:39 GMT","SOURCE":"PARKS","SACC":"IN","OPEN_":"SEASON"}},{"type":"Feature","id":39,"geometry":{"type":"Point","coordinates":[-63.4900044640436,44.6837198680345]},"properties":{"GLOBALID":"36f960a3-9654-4dc1-bafd-49f70a88ac35","OBJECTID":39,"WASH_ID":"WSH39","BL_ID":"BL89","FAC_NAME":"COLE HARBOUR PLACE - PUBLIC LIBRARY","CIV_ID":112135,"FULL_CIVIC":"51","STR_NAME":"FOREST HILLS","STR_TYPE":"PKY","GSA_NAME":"COLE HARBOUR","DISTRICT":"04","WASHTYPE":"BOTH","STALL":"Y","BYCHGTBL":"Y","UNCHGTBL":"N","STATUS":"GENUSE","ADDDATE":"Thu, 16 Jul 2020 22:03:41 GMT","MODDATE":"Thu, 23 Jul 2020 15:25:46 GMT","SOURCE":"LIBRARIES","SACC":"IN","OPEN_":"ALL"}},{"type":"Feature","id":40,"geometry":{"type":"Point","coordinates":[-63.566799913242,44.6846511001784]},"properties":{"GLOBALID":"9177b804-1851-4a5f-97a5-6ce28db02ff5","OBJECTID":40,"WASH_ID":"WSH4","BL_ID":"BL679","FAC_NAME":"MAYBANK FIELD WASHROOM FACILITY","CIV_ID":139468,"FULL_CIVIC":"1088","STR_NAME":"MICMAC","STR_TYPE":"BLVD","GSA_NAME":"DARTMOUTH","DISTRICT":"05","WASHTYPE":"GENSPEC","STALL":"N","BYCHGTBL":"N","UNCHGTBL":"N","STATUS":"GENUSE","ADDDATE":"Wed, 15 Jul 2020 20:59:01 GMT","MODDATE":"Mon, 11 Aug 2025 15:10:31 GMT","SOURCE":"PARKS","SACC":"IN","OPEN_":"SEASON"}},{"type":"Feature","id":41,"geometry":{"type":"Point","coordinates":[-63.5885733940828,44.6840606481583]},"properties":{"GLOBALID":"6defaef9-da90-4369-9175-f419333821bd","OBJECTID":41,"WASH_ID":"WSH35","BL_ID":"BL597","FAC_NAME":"DARTMOUTH NORTH PUBLIC LIBRARY","CIV_ID":50380,"FULL_CIVIC":"105","STR_NAME":"HIGHFIELD PARK","STR_TYPE":"DR","GSA_NAME":"DARTMOUTH","DISTRICT":"05","WASHTYPE":"BOTH","STALL":"Y","BYCHGTBL":"Y","UNCHGTBL":"N","STATUS":"GENUSE","ADDDATE":"Thu, 16 Jul 2020 21:41:19 GMT","MODDATE":"Thu, 16 Jul 2020 22:27:57 GMT","SOURCE":"LIBRARIES","SACC":"IN","OPEN_":"ALL"}},{"type":"Feature","id":42,"geometry":{"type":"Point","coordinates":[-62.5441385132593,44.9272605444904]},"properties":{"GLOBALID":"27b534b1-300a-4dde-b854-58a0361577d0","OBJECTID":42,"WASH_ID":"WSH78","BL_ID":"BL708","FAC_NAME":"MACPHEE HOUSE","CIV_ID":91531,"FULL_CIVIC":"22404","STR_NAME":"HIGHWAY 7","STR_TYPE":"SHEET ","GSA_NAME":"SHEET HARBOUR","DISTRICT":"2","WASHTYPE":"GENSPEC","STALL":"Y","BYCHGTBL":"N","UNCHGTBL":"N","STATUS":"GENUSE","ADDDATE":"Mon, 11 Aug 2025 14:50:22 GMT","MODDATE":"Mon, 11 Aug 2025 14:55:18 GMT","SOURCE":"PARKS","SACC":"IN","OPEN_":"SEASON"}},{"type":"Feature","id":43,"geometry":{"type":"Point","coordinates":[-63.6204865565908,44.6379649413609]},"properties":{"GLOBALID":"0d5bbbc3-2319-49b3-a125-022f8c5ab61b","OBJECTID":43,"WASH_ID":"WSH14","BL_ID":"BL86476","FAC_NAME":"CHOCOLATE LAKE WASHROOM FACILITY","CIV_ID":78720,"FULL_CIVIC":"3","STR_NAME":"MELWOOD","STR_TYPE":"AVE","GSA_NAME":"HALIFAX","DISTRICT":"09","WASHTYPE":"GENSPEC","STALL":"Y","BYCHGTBL":"Y","UNCHGTBL":"Y","STATUS":"GENUSE","ADDDATE":"Wed, 15 Jul 2020 20:59:01 GMT","MODDATE":"Mon, 11 Aug 2025 15:09:52 GMT","SOURCE":"PARKS","SACC":"IN","OPEN_":"SEASON"}},{"type":"Feature","id":44,"geometry":{"type":"Point","coordinates":[-63.6230699559394,44.6597388431822]},"properties":{"GLOBALID":"b00b0896-f4ac-4f69-9caa-1862204734d9","OBJECTID":44,"WASH_ID":"WSH20","BL_ID":"BL931","FAC_NAME":"FAIRVIEW CEMETERY WORKSHOP","CIV_ID":64860,"FULL_CIVIC":"3720","STR_NAME":"WINDSOR","STR_TYPE":"ST","GSA_NAME":"HALIFAX","DISTRICT":"09","WASHTYPE":"UNIVERS","STALL":"Y","BYCHGTBL":"Y","UNCHGTBL":"N","STATUS":"GENUSE","ADDDATE":"Wed, 15 Jul 2020 20:59:01 GMT","MODDATE":"Mon, 11 Aug 2025 15:30:43 GMT","SOURCE":"PARKS","SACC":"IN","OPEN_":"SEASON"}},{"type":"Feature","id":45,"geometry":{"type":"Point","coordinates":[-63.5765310078803,44.6860873770702]},"properties":{"GLOBALID":"7d7a7ce9-503e-4e3b-8431-c064e42dc6be","OBJECTID":45,"WASH_ID":"WSH6","BL_ID":"BL86473","FAC_NAME":"ALBRO LAKE WASHROOM FACILITY","CIV_ID":49709,"FULL_CIVIC":"1","STR_NAME":"SEA KING","STR_TYPE":"DR","GSA_NAME":"DARTMOUTH","DISTRICT":"05","WASHTYPE":"GENSPEC","STALL":"Y","BYCHGTBL":"Y","UNCHGTBL":"Y","STATUS":"GENUSE","ADDDATE":"Wed, 15 Jul 2020 20:59:01 GMT","MODDATE":"Mon, 11 Aug 2025 15:25:16 GMT","SOURCE":"PARKS","SACC":"IN","OPEN_":"SEASON"}},{"type":"Feature","id":46,"geometry":{"type":"Point","coordinates":[-63.8579774830369,44.703165720014]},"properties":{"GLOBALID":"2937fa69-fc2d-44a5-bf8a-d7fe22015ebf","OBJECTID":46,"WASH_ID":"WSH33","BL_ID":"BL960","FAC_NAME":"TANTALLON PUBLIC LIBRARY","CIV_ID":134732,"FULL_CIVIC":"3646","STR_NAME":"HAMMONDS PLAINS","STR_TYPE":"RD","GSA_NAME":"UPPER TANTALLON","DISTRICT":"13","WASHTYPE":"GENSPEC","STALL":"Y","BYCHGTBL":"Y","UNCHGTBL":"N","STATUS":"GENUSE","ADDDATE":"Thu, 16 Jul 2020 21:31:47 GMT","MODDATE":"Thu, 16 Jul 2020 22:27:57 GMT","SOURCE":"LIBRARIES","SACC":"IN","OPEN_":"ALL"}},{"type":"Feature","id":47,"geometry":{"type":"Point","coordinates":[-63.6764160102349,44.7801316867951]},"properties":{"GLOBALID":"9cb77c5e-f0eb-4d62-8131-e0dd80671051","OBJECTID":47,"WASH_ID":"WSH76","BL_ID":"BL159320","FAC_NAME":"METROPOLITAN AVENUE PARK WASHROOM FACILITY","CIV_ID":40378,"FULL_CIVIC":"94","STR_NAME":"METROPOLITAN","STR_TYPE":"AVE","GSA_NAME":"LOWER SACKVILLE","DISTRICT":"15","WASHTYPE":"UNIVERS","STALL":"Y","BYCHGTBL":"N","UNCHGTBL":"Y","STATUS":"GENUSE","ADDDATE":"Mon, 11 Aug 2025 14:43:35 GMT","MODDATE":"Mon, 11 Aug 2025 14:46:12 GMT","SOURCE":"PARKS","SACC":"IN","OPEN_":"SEASON"}}]}