{
"type": "FeatureCollection",
"name": "Traffic Control Geo",
"crs": { "type": "name", "properties": { "name": "urn:ogc:def:crs:OGC:1.3:CRS84" } },
"features": [
{ "type": "Feature", "properties": { "id": 13, "latitude": 44.6422886, "longitude": -63.57976248, "LOCATION": "SOUTH PARK ST - SPRING GARDEN RD" }, "geometry": { "type": "Point", "coordinates": [ -63.57976248, 44.6422886 ] } },
{ "type": "Feature", "properties": { "id": 19, "latitude": 44.652831, "longitude": -63.58611556, "LOCATION": "Cunard St at Creighton St" }, "geometry": { "type": "Point", "coordinates": [ -63.58611556, 44.652831 ] } },
{ "type": "Feature", "properties": { "id": 28, "latitude": 44.64724445, "longitude": -63.57407367, "LOCATION": "BARRINGTON ST - PRINCE ST" }, "geometry": { "type": "Point", "coordinates": [ -63.57407367, 44.64724445 ] } },
{ "type": "Feature", "properties": { "id": 34, "latitude": 44.64792136, "longitude": -63.57156038, "LOCATION": "Lower Water St at Prince St" }, "geometry": { "type": "Point", "coordinates": [ -63.57156038, 44.64792136 ] } },
{ "type": "Feature", "properties": { "id": 62, "latitude": 44.64107418, "longitude": -63.57915316, "LOCATION": "SOUTH PARK ST - BRENTON PL" }, "geometry": { "type": "Point", "coordinates": [ -63.57915316, 44.64107418 ] } },
{ "type": "Feature", "properties": { "id": 83, "latitude": 44.65142947, "longitude": -63.58255511, "LOCATION": "Gottingen St/Falkland St" }, "geometry": { "type": "Point", "coordinates": [ -63.58255511, 44.65142947 ] } },
{ "type": "Feature", "properties": { "id": 98, "latitude": 44.65030659, "longitude": -63.57424527, "LOCATION": "Hollis St at Upper Water St" }, "geometry": { "type": "Point", "coordinates": [ -63.57424527, 44.65030659 ] } },
{ "type": "Feature", "properties": { "id": 104, "latitude": 44.64361016, "longitude": -63.57488254, "LOCATION": "SPRING GARDEN RD - BRUNSWICK ST" }, "geometry": { "type": "Point", "coordinates": [ -63.57488254, 44.64361016 ] } },
{ "type": "Feature", "properties": { "id": 115, "latitude": 44.64421634, "longitude": -63.57254028, "LOCATION": "BARRINGTON ST - SPRING GARDEN RD" }, "geometry": { "type": "Point", "coordinates": [ -63.57254028, 44.64421634 ] } },
{ "type": "Feature", "properties": { "id": 136, "latitude": 44.64241497, "longitude": -63.56876802, "LOCATION": "LOWER WATER ST - MORRIS ST" }, "geometry": { "type": "Point", "coordinates": [ -63.56876802, 44.64241497 ] } },
{ "type": "Feature", "properties": { "id": 140, "latitude": 44.65239042, "longitude": -63.58390873, "LOCATION": "NORA BERNARD ST - GOTTINGEN ST" }, "geometry": { "type": "Point", "coordinates": [ -63.58390873, 44.65239042 ] } },
{ "type": "Feature", "properties": { "id": 144, "latitude": 44.64815338, "longitude": -63.57454302, "LOCATION": "Barrington St/George St" }, "geometry": { "type": "Point", "coordinates": [ -63.57454302, 44.64815338 ] } },
{ "type": "Feature", "properties": { "id": 152, "latitude": 44.65444168, "longitude": -63.59222311, "LOCATION": "Agricola St/Charles St" }, "geometry": { "type": "Point", "coordinates": [ -63.59222311, 44.65444168 ] } },
{ "type": "Feature", "properties": { "id": 153, "latitude": 44.65397975, "longitude": -63.58152719, "LOCATION": "BARRINGTON ST - NORA BERNARD ST" }, "geometry": { "type": "Point", "coordinates": [ -63.58152719, 44.65397975 ] } },
{ "type": "Feature", "properties": { "id": 164, "latitude": 44.64963656, "longitude": -63.57331489, "LOCATION": "WATER ST - DUKE ST" }, "geometry": { "type": "Point", "coordinates": [ -63.57331489, 44.64963656 ] } },
{ "type": "Feature", "properties": { "id": 168, "latitude": 44.6485932, "longitude": -63.57773267, "LOCATION": "BRUNSWICK ST - DUKE ST - GOTTINGEN ST" }, "geometry": { "type": "Point", "coordinates": [ -63.57773267, 44.6485932 ] } },
{ "type": "Feature", "properties": { "id": 187, "latitude": 44.64503856, "longitude": -63.57151088, "LOCATION": "HOLLIS ST - SALTER ST (SINGLE SIGN)" }, "geometry": { "type": "Point", "coordinates": [ -63.57151088, 44.64503856 ] } },
{ "type": "Feature", "properties": { "id": 208, "latitude": 44.64892578, "longitude": -63.57232054, "LOCATION": "GEORGE ST - WATER ST" }, "geometry": { "type": "Point", "coordinates": [ -63.57232054, 44.64892578 ] } },
{ "type": "Feature", "properties": { "id": 225, "latitude": 44.64755251, "longitude": -63.57720521, "LOCATION": "BRUNSWICK ST - CARMICHAEL ST" }, "geometry": { "type": "Point", "coordinates": [ -63.57720521, 44.64755251 ] } },
{ "type": "Feature", "properties": { "id": 233, "latitude": 44.64626338, "longitude": -63.5735703, "LOCATION": "BARRINGTON ST - SACKVILLE ST" }, "geometry": { "type": "Point", "coordinates": [ -63.5735703, 44.64626338 ] } },
{ "type": "Feature", "properties": { "id": 235, "latitude": 44.65105013, "longitude": -63.59075699, "LOCATION": "Cunard Street at Princess Place" }, "geometry": { "type": "Point", "coordinates": [ -63.59075699, 44.65105013 ] } },
{ "type": "Feature", "properties": { "id": 259, "latitude": 44.64133377, "longitude": -63.58333123, "LOCATION": "SPRING GARDEN RD - SUMMER ST" }, "geometry": { "type": "Point", "coordinates": [ -63.58333123, 44.64133377 ] } },
{ "type": "Feature", "properties": { "id": 266, "latitude": 44.64558416, "longitude": -63.57620347, "LOCATION": "BRUNSWICK ST - SACKVILLE ST" }, "geometry": { "type": "Point", "coordinates": [ -63.57620347, 44.64558416 ] } },
{ "type": "Feature", "properties": { "id": 283, "latitude": 44.6492101, "longitude": -63.57506649, "LOCATION": "BARRINGTON ST - DUKE ST" }, "geometry": { "type": "Point", "coordinates": [ -63.57506649, 44.6492101 ] } },
{ "type": "Feature", "properties": { "id": 284, "latitude": 44.64903483, "longitude": -63.57579717, "LOCATION": "DUKE STREET - ARGYLE ST" }, "geometry": { "type": "Point", "coordinates": [ -63.57579717, 44.64903483 ] } },
{ "type": "Feature", "properties": { "id": 288, "latitude": 44.64492036, "longitude": -63.57893717, "LOCATION": "SACKVILLE ST - DRESDEN ROW" }, "geometry": { "type": "Point", "coordinates": [ -63.57893717, 44.64492036 ] } },
{ "type": "Feature", "properties": { "id": 303, "latitude": 44.6417534, "longitude": -63.57128646, "LOCATION": "BARRINGTON ST - MORRIS ST" }, "geometry": { "type": "Point", "coordinates": [ -63.57128646, 44.6417534 ] } },
{ "type": "Feature", "properties": { "id": 335, "latitude": 44.65147865, "longitude": -63.58813939, "LOCATION": "AGRICOLA ST - NORTH PARK ST ROUNDABOUT" }, "geometry": { "type": "Point", "coordinates": [ -63.58813939, 44.65147865 ] } },
{ "type": "Feature", "properties": { "id": 350, "latitude": 44.64948744, "longitude": -63.58518635, "LOCATION": "COGSWELL ST - NORTH PARK ST ROUNDABOUT" }, "geometry": { "type": "Point", "coordinates": [ -63.58518635, 44.64948744 ] } },
{ "type": "Feature", "properties": { "id": 365, "latitude": 44.64689448, "longitude": -63.57108464, "LOCATION": "LOWER WATER ST - SACKVILLE ST" }, "geometry": { "type": "Point", "coordinates": [ -63.57108464, 44.64689448 ] } },
{ "type": "Feature", "properties": { "id": 373, "latitude": 44.64038476, "longitude": -63.58685374, "LOCATION": "COBURG RD - ROBIE ST - SPRING GARDEN RD" }, "geometry": { "type": "Point", "coordinates": [ -63.58685374, 44.64038476 ] } },
{ "type": "Feature", "properties": { "id": 375, "latitude": 44.64854388, "longitude": -63.57330742, "LOCATION": "GEORGE ST - HOLLIS ST" }, "geometry": { "type": "Point", "coordinates": [ -63.57330742, 44.64854388 ] } },
{ "type": "Feature", "properties": { "id": 378, "latitude": 44.65137829, "longitude": -63.58550255, "LOCATION": "NORA BERNARD ST - MAYNARD ST" }, "geometry": { "type": "Point", "coordinates": [ -63.58550255, 44.65137829 ] } },
{ "type": "Feature", "properties": { "id": 410, "latitude": 44.64724298, "longitude": -63.59044246, "LOCATION": "ROBIE ST - QUINPOOL RD - COGSWELL RD - BELL RD (WILLOW TREE)" }, "geometry": { "type": "Point", "coordinates": [ -63.59044246, 44.64724298 ] } },
{ "type": "Feature", "properties": { "id": 411, "latitude": 44.64951301, "longitude": -63.57380425, "LOCATION": "DUKE ST - HOLLIS ST" }, "geometry": { "type": "Point", "coordinates": [ -63.57380425, 44.64951301 ] } },
{ "type": "Feature", "properties": { "id": 418, "latitude": 44.64280784, "longitude": -63.57785989, "LOCATION": "DRESDEN ROW - SPRING GARDEN RD" }, "geometry": { "type": "Point", "coordinates": [ -63.57785989, 44.64280784 ] } },
{ "type": "Feature", "properties": { "id": 427, "latitude": 44.64919548, "longitude": -63.57997866, "LOCATION": "Gottingen St at Rainnie Dr" }, "geometry": { "type": "Point", "coordinates": [ -63.57997866, 44.64919548 ] } },
{ "type": "Feature", "properties": { "id": 436, "latitude": 44.64755953, "longitude": -63.5728032, "LOCATION": "HOLLIS ST - PRINCE ST" }, "geometry": { "type": "Point", "coordinates": [ -63.5728032, 44.64755953 ] } },
{ "type": "Feature", "properties": { "id": 437, "latitude": 44.65081703, "longitude": -63.59234271, "LOCATION": "CUNARD ST - ROBIE ST" }, "geometry": { "type": "Point", "coordinates": [ -63.59234271, 44.65081703 ] } },
{ "type": "Feature", "properties": { "id": 440, "latitude": 44.64444216, "longitude": -63.58082461, "LOCATION": "BELL RD - SACKVILLE ST - SOUTH PARK ST" }, "geometry": { "type": "Point", "coordinates": [ -63.58082461, 44.64444216 ] } },
{ "type": "Feature", "properties": { "id": 473, "latitude": 44.65041727, "longitude": -63.57387512, "LOCATION": "Lower Water St at Upper Water St" }, "geometry": { "type": "Point", "coordinates": [ -63.57387512, 44.65041727 ] } },
{ "type": "Feature", "properties": { "id": 480, "latitude": 44.64529513, "longitude": -63.57056011, "LOCATION": "LOWER WATER ST - SALTER ST" }, "geometry": { "type": "Point", "coordinates": [ -63.57056011, 44.64529513 ] } },
{ "type": "Feature", "properties": { "id": 494, "latitude": 44.65048351, "longitude": -63.58103758, "LOCATION": "COGSWELL ST - GOTTINGEN ST" }, "geometry": { "type": "Point", "coordinates": [ -63.58103758, 44.65048351 ] } },
{ "type": "Feature", "properties": { "id": 505, "latitude": 44.653441, "longitude": -63.58235036, "LOCATION": "BRUNSWICK ST - NORA BERNARD ST" }, "geometry": { "type": "Point", "coordinates": [ -63.58235036, 44.653441 ] } },
{ "type": "Feature", "properties": { "id": 509, "latitude": 44.64211762, "longitude": -63.57536205, "LOCATION": "QUEEN ST - CLYDE ST" }, "geometry": { "type": "Point", "coordinates": [ -63.57536205, 44.64211762 ] } },
{ "type": "Feature", "properties": { "id": 522, "latitude": 44.64891019, "longitude": -63.59141641, "LOCATION": "ROBIE ST - WELSFORD ST" }, "geometry": { "type": "Point", "coordinates": [ -63.59141641, 44.64891019 ] } },
{ "type": "Feature", "properties": { "id": 533, "latitude": 44.64587558, "longitude": -63.58970009, "LOCATION": "ROBIE ST - SHIRLEY ST" }, "geometry": { "type": "Point", "coordinates": [ -63.58970009, 44.64587558 ] } },
{ "type": "Feature", "properties": { "id": 537, "latitude": 44.6506937, "longitude": -63.58658128, "LOCATION": "NORA BERNARD ST - NORTH PARK ST" }, "geometry": { "type": "Point", "coordinates": [ -63.58658128, 44.6506937 ] } },
{ "type": "Feature", "properties": { "id": 550, "latitude": 44.64680101, "longitude": -63.58602551, "LOCATION": "BELL RD - SUMMER ST - TROLLOPE ST" }, "geometry": { "type": "Point", "coordinates": [ -63.58602551, 44.64680101 ] } },
{ "type": "Feature", "properties": { "id": 560, "latitude": 44.65303293, "longitude": -63.59020843, "LOCATION": "AGRICOLA ST @ WEST ST" }, "geometry": { "type": "Point", "coordinates": [ -63.59020843, 44.65303293 ] } },
{ "type": "Feature", "properties": { "id": 562, "latitude": 44.65232553, "longitude": -63.58690962, "LOCATION": "CUNARD ST - MAYNARD ST" }, "geometry": { "type": "Point", "coordinates": [ -63.58690962, 44.65232553 ] } },
{ "type": "Feature", "properties": { "id": 592, "latitude": 44.65175551, "longitude": -63.57640871, "LOCATION": "BARRINGTON ST - COGSWELL ST" }, "geometry": { "type": "Point", "coordinates": [ -63.57640871, 44.65175551 ] } },
{ "type": "Feature", "properties": { "id": 593, "latitude": 44.64086369, "longitude": -63.58507908, "LOCATION": "SPRING GARDEN RD - CARLTON ST" }, "geometry": { "type": "Point", "coordinates": [ -63.58507908, 44.64086369 ] } },
{ "type": "Feature", "properties": { "id": 594, "latitude": 44.64353161, "longitude": -63.58848484, "LOCATION": "JUBILEE RD - ROBIE ST" }, "geometry": { "type": "Point", "coordinates": [ -63.58848484, 44.64353161 ] } },
{ "type": "Feature", "properties": { "id": 595, "latitude": 44.64496452, "longitude": -63.58930763, "LOCATION": "ROBIE ST - CHERRY ST (HOSPITAL)" }, "geometry": { "type": "Point", "coordinates": [ -63.58930763, 44.64496452 ] } },
{ "type": "Feature", "properties": { "id": 597, "latitude": 44.65101841, "longitude": -63.57897639, "LOCATION": "BRUNSWICK ST - COGSWELL ST" }, "geometry": { "type": "Point", "coordinates": [ -63.57897639, 44.65101841 ] } },
{ "type": "Feature", "properties": { "id": 604, "latitude": 44.64362819, "longitude": -63.5694909, "LOCATION": "LOWER WATER ST - BISHOP ST" }, "geometry": { "type": "Point", "coordinates": [ -63.5694909, 44.64362819 ] } },
{ "type": "Feature", "properties": { "id": 605, "latitude": 44.64658514, "longitude": -63.57230151, "LOCATION": "HOLLIS ST - SACKVILLE ST" }, "geometry": { "type": "Point", "coordinates": [ -63.57230151, 44.64658514 ] } },
{ "type": "Feature", "properties": { "id": 616, "latitude": 44.64208258, "longitude": -63.57002257, "LOCATION": "HOLLIS ST - MORRIS ST" }, "geometry": { "type": "Point", "coordinates": [ -63.57002257, 44.64208258 ] } },
{ "type": "Feature", "properties": { "id": 640, "latitude": 44.65337217, "longitude": -63.58534551, "LOCATION": "GOTTINGEN ST - CUNARD ST" }, "geometry": { "type": "Point", "coordinates": [ -63.58534551, 44.65337217 ] } },
{ "type": "Feature", "properties": { "id": 641, "latitude": 44.64841638, "longitude": -63.58815935, "LOCATION": "COGSWELL ST - APPROX CIVIC 5816" }, "geometry": { "type": "Point", "coordinates": [ -63.58815935, 44.64841638 ] } },
{ "type": "Feature", "properties": { "id": 648, "latitude": 44.64657447, "longitude": -63.57671672, "LOCATION": "BRUNSWICK ST - PRINCE ST" }, "geometry": { "type": "Point", "coordinates": [ -63.57671672, 44.64657447 ] } },
{ "type": "Feature", "properties": { "id": 659, "latitude": 44.65016981, "longitude": -63.57556401, "LOCATION": "BARRINGTON ST - BARRINGTON PLACE SHOPS" }, "geometry": { "type": "Point", "coordinates": [ -63.57556401, 44.65016981 ] } },
{ "type": "Feature", "properties": { "id": 660, "latitude": 44.64331305, "longitude": -63.57596344, "LOCATION": "QUEEN ST - SPRING GARDEN RD" }, "geometry": { "type": "Point", "coordinates": [ -63.57596344, 44.64331305 ] } },
{ "type": "Feature", "properties": { "id": 667, "latitude": 44.64387644, "longitude": -63.57388212, "LOCATION": "SPRING GARDEN RD/GRAFTON ST" }, "geometry": { "type": "Point", "coordinates": [ -63.57388212, 44.64387644 ] } }
]
}
