{
"type": "FeatureCollection",
"name": "Transit Bus Routes Geo",
"crs": { "type": "name", "properties": { "name": "urn:ogc:def:crs:OGC:1.3:CRS84" } },
"features": [
{ "type": "Feature", "properties": { "id": 1, "latitude": 44.63905583, "longitude": -63.58214128, "ROUTE_NUM": 135, "TITLE": "FLAMINGO EXPRESS", "ROUTE_FULL": "135", "WEEKDAY": null, "WEEKEND": null }, "geometry": { "type": "Point", "coordinates": [ -63.58214128, 44.63905583 ] } },
{ "type": "Feature", "properties": { "id": 2, "latitude": 44.63263978, "longitude": -63.58323551, "ROUTE_NUM": 4, "TITLE": "UNIVERSITIES", "ROUTE_FULL": "4", "WEEKDAY": "Y", "WEEKEND": "Y" }, "geometry": { "type": "Point", "coordinates": [ -63.58323551, 44.63263978 ] } },
{ "type": "Feature", "properties": { "id": 3, "latitude": 44.64038476, "longitude": -63.58685374, "ROUTE_NUM": 8, "TITLE": "SACKVILLE", "ROUTE_FULL": "8", "WEEKDAY": "Y", "WEEKEND": "Y" }, "geometry": { "type": "Point", "coordinates": [ -63.58685374, 44.64038476 ] } },
{ "type": "Feature", "properties": { "id": 4, "latitude": 44.67027408, "longitude": -63.53911471, "ROUTE_NUM": 58, "TITLE": "WOODLAWN", "ROUTE_FULL": "58", "WEEKDAY": "Y", "WEEKEND": "Y" }, "geometry": { "type": "Point", "coordinates": [ -63.53911471, 44.67027408 ] } },
{ "type": "Feature", "properties": { "id": 5, "latitude": 44.648677, "longitude": -63.62170584, "ROUTE_NUM": 91, "TITLE": "HEMLOCK RAVINE", "ROUTE_FULL": "91", "WEEKDAY": "Y", "WEEKEND": "Y" }, "geometry": { "type": "Point", "coordinates": [ -63.62170584, 44.648677 ] } },
{ "type": "Feature", "properties": { "id": 6, "latitude": 44.648677, "longitude": -63.62170584, "ROUTE_NUM": 22, "TITLE": "ARMDALE", "ROUTE_FULL": "22", "WEEKDAY": "Y", "WEEKEND": "Y" }, "geometry": { "type": "Point", "coordinates": [ -63.62170584, 44.648677 ] } },
{ "type": "Feature", "properties": { "id": 7, "latitude": 44.63510298, "longitude": -63.66953901, "ROUTE_NUM": 21, "TITLE": "TIMBERLEA", "ROUTE_FULL": "21", "WEEKDAY": "Y", "WEEKEND": "Y" }, "geometry": { "type": "Point", "coordinates": [ -63.66953901, 44.63510298 ] } },
{ "type": "Feature", "properties": { "id": 8, "latitude": 44.66753102, "longitude": -63.57636045, "ROUTE_NUM": 51, "TITLE": "WINDMILL", "ROUTE_FULL": "51B", "WEEKDAY": "Y", "WEEKEND": "N" }, "geometry": { "type": "Point", "coordinates": [ -63.57636045, 44.66753102 ] } },
{ "type": "Feature", "properties": { "id": 9, "latitude": 44.74915439, "longitude": -63.64753081, "ROUTE_NUM": 88, "TITLE": "BEDFORD COMMONS", "ROUTE_FULL": "88", "WEEKDAY": "Y", "WEEKEND": "Y" }, "geometry": { "type": "Point", "coordinates": [ -63.64753081, 44.74915439 ] } },
{ "type": "Feature", "properties": { "id": 10, "latitude": 44.65498791, "longitude": -63.48083324, "ROUTE_NUM": 65, "TITLE": "CALDWELL", "ROUTE_FULL": "65", "WEEKDAY": "Y", "WEEKEND": "Y" }, "geometry": { "type": "Point", "coordinates": [ -63.48083324, 44.65498791 ] } },
{ "type": "Feature", "properties": { "id": 11, "latitude": 44.59559041, "longitude": -63.63634205, "ROUTE_NUM": 24, "TITLE": "LEIBLIN PARK", "ROUTE_FULL": "24", "WEEKDAY": "Y", "WEEKEND": "Y" }, "geometry": { "type": "Point", "coordinates": [ -63.63634205, 44.59559041 ] } },
{ "type": "Feature", "properties": { "id": 12, "latitude": 44.58993044, "longitude": -63.59453484, "ROUTE_NUM": 9, "TITLE": "GREYSTONE", "ROUTE_FULL": "9A", "WEEKDAY": "Y", "WEEKEND": "Y" }, "geometry": { "type": "Point", "coordinates": [ -63.59453484, 44.58993044 ] } },
{ "type": "Feature", "properties": { "id": 13, "latitude": 44.66990174, "longitude": -63.5735198, "ROUTE_NUM": 10, "TITLE": "DALHOUSIE", "ROUTE_FULL": "10A", "WEEKDAY": "Y", "WEEKEND": "Y" }, "geometry": { "type": "Point", "coordinates": [ -63.5735198, 44.66990174 ] } },
{ "type": "Feature", "properties": { "id": 14, "latitude": 44.6621274, "longitude": -63.6576313, "ROUTE_NUM": 2, "TITLE": "FAIRVIEW", "ROUTE_FULL": "2", "WEEKDAY": "Y", "WEEKEND": "Y" }, "geometry": { "type": "Point", "coordinates": [ -63.6576313, 44.6621274 ] } },
{ "type": "Feature", "properties": { "id": 15, "latitude": 44.63905583, "longitude": -63.58214128, "ROUTE_NUM": 138, "TITLE": "PARKLAND EXPRESS", "ROUTE_FULL": "138", "WEEKDAY": null, "WEEKEND": null }, "geometry": { "type": "Point", "coordinates": [ -63.58214128, 44.63905583 ] } },
{ "type": "Feature", "properties": { "id": 16, "latitude": 44.66097026, "longitude": -63.6633853, "ROUTE_NUM": 30, "TITLE": "CLAYTON PARK WEST - PARKLAND", "ROUTE_FULL": "30A", "WEEKDAY": "Y", "WEEKEND": "Y" }, "geometry": { "type": "Point", "coordinates": [ -63.6633853, 44.66097026 ] } },
{ "type": "Feature", "properties": { "id": 17, "latitude": 44.67042449, "longitude": -63.50603158, "ROUTE_NUM": 401, "TITLE": "PORTERS LAKE", "ROUTE_FULL": "401", "WEEKDAY": null, "WEEKEND": null }, "geometry": { "type": "Point", "coordinates": [ -63.50603158, 44.67042449 ] } },
{ "type": "Feature", "properties": { "id": 18, "latitude": 44.64549076, "longitude": -63.61503007, "ROUTE_NUM": 3, "TITLE": "CROSSTOWN", "ROUTE_FULL": "3", "WEEKDAY": "Y", "WEEKEND": "Y" }, "geometry": { "type": "Point", "coordinates": [ -63.61503007, 44.64549076 ] } },
{ "type": "Feature", "properties": { "id": 19, "latitude": 44.63905583, "longitude": -63.58214128, "ROUTE_NUM": 165, "TITLE": "CALDWELL EXPRESS", "ROUTE_FULL": "165", "WEEKDAY": null, "WEEKEND": null }, "geometry": { "type": "Point", "coordinates": [ -63.58214128, 44.63905583 ] } },
{ "type": "Feature", "properties": { "id": 20, "latitude": 44.61172357, "longitude": -63.49440015, "ROUTE_NUM": 6, "TITLE": "EASTERN PASSAGE", "ROUTE_FULL": "6B", "WEEKDAY": "Y", "WEEKEND": "Y" }, "geometry": { "type": "Point", "coordinates": [ -63.49440015, 44.61172357 ] } },
{ "type": "Feature", "properties": { "id": 21, "latitude": 44.73856188, "longitude": -63.4643765, "ROUTE_NUM": 161, "TITLE": "NORTH PRESTON EXPRESS", "ROUTE_FULL": "161", "WEEKDAY": null, "WEEKEND": null }, "geometry": { "type": "Point", "coordinates": [ -63.4643765, 44.73856188 ] } },
{ "type": "Feature", "properties": { "id": 22, "latitude": 44.64133377, "longitude": -63.58333123, "ROUTE_NUM": 192, "TITLE": "HEMLOCK RAVINE EXPRESS", "ROUTE_FULL": "192", "WEEKDAY": "Y", "WEEKEND": "Y" }, "geometry": { "type": "Point", "coordinates": [ -63.58333123, 44.64133377 ] } },
{ "type": "Feature", "properties": { "id": 23, "latitude": 44.75383577, "longitude": -63.66316327, "ROUTE_NUM": 82, "TITLE": "FIRST LAKE", "ROUTE_FULL": "82", "WEEKDAY": "Y", "WEEKEND": "Y" }, "geometry": { "type": "Point", "coordinates": [ -63.66316327, 44.75383577 ] } },
{ "type": "Feature", "properties": { "id": 24, "latitude": 44.67042449, "longitude": -63.50603158, "ROUTE_NUM": 59, "TITLE": "COLBY", "ROUTE_FULL": "59", "WEEKDAY": "Y", "WEEKEND": "Y" }, "geometry": { "type": "Point", "coordinates": [ -63.50603158, 44.67042449 ] } },
{ "type": "Feature", "properties": { "id": 25, "latitude": 44.63905583, "longitude": -63.58214128, "ROUTE_NUM": 137, "TITLE": "CLAYTON PARK EXPRESS", "ROUTE_FULL": "137", "WEEKDAY": null, "WEEKEND": null }, "geometry": { "type": "Point", "coordinates": [ -63.58214128, 44.63905583 ] } },
{ "type": "Feature", "properties": { "id": 26, "latitude": 44.70853104, "longitude": -63.70805477, "ROUTE_NUM": 194, "TITLE": "WEST BEDFORD EXPRESS", "ROUTE_FULL": "194", "WEEKDAY": null, "WEEKEND": null }, "geometry": { "type": "Point", "coordinates": [ -63.70805477, 44.70853104 ] } },
{ "type": "Feature", "properties": { "id": 27, "latitude": 44.66397943, "longitude": -63.62007666, "ROUTE_NUM": 29, "TITLE": "BARRINGTON", "ROUTE_FULL": "29", "WEEKDAY": "Y", "WEEKEND": "Y" }, "geometry": { "type": "Point", "coordinates": [ -63.62007666, 44.66397943 ] } },
{ "type": "Feature", "properties": { "id": 28, "latitude": 44.63905583, "longitude": -63.58214128, "ROUTE_NUM": 158, "TITLE": "WOODLAWN EXPRESS", "ROUTE_FULL": "158", "WEEKDAY": null, "WEEKEND": null }, "geometry": { "type": "Point", "coordinates": [ -63.58214128, 44.63905583 ] } },
{ "type": "Feature", "properties": { "id": 29, "latitude": 44.68530277, "longitude": -63.56843727, "ROUTE_NUM": 10, "TITLE": "DALHOUSIE", "ROUTE_FULL": "10C", "WEEKDAY": "Y", "WEEKEND": "Y" }, "geometry": { "type": "Point", "coordinates": [ -63.56843727, 44.68530277 ] } },
{ "type": "Feature", "properties": { "id": 30, "latitude": 44.68450183, "longitude": -63.5895936, "ROUTE_NUM": 64, "TITLE": "BURNSIDE", "ROUTE_FULL": "64", "WEEKDAY": "Y", "WEEKEND": null }, "geometry": { "type": "Point", "coordinates": [ -63.5895936, 44.68450183 ] } },
{ "type": "Feature", "properties": { "id": 31, "latitude": 44.66483097, "longitude": -63.56904299, "ROUTE_NUM": 55, "TITLE": "PORT WALLACE", "ROUTE_FULL": "55", "WEEKDAY": "Y", "WEEKEND": "Y" }, "geometry": { "type": "Point", "coordinates": [ -63.56904299, 44.66483097 ] } },
{ "type": "Feature", "properties": { "id": 32, "latitude": 44.65869185, "longitude": -63.5892262, "ROUTE_NUM": 5, "TITLE": "PORTLAND", "ROUTE_FULL": "5", "WEEKDAY": "Y", "WEEKEND": "Y" }, "geometry": { "type": "Point", "coordinates": [ -63.5892262, 44.65869185 ] } },
{ "type": "Feature", "properties": { "id": 33, "latitude": 44.61353669, "longitude": -63.47040357, "ROUTE_NUM": 6, "TITLE": "HERITAGE HILLS", "ROUTE_FULL": "6C", "WEEKDAY": "Y", "WEEKEND": "Y" }, "geometry": { "type": "Point", "coordinates": [ -63.47040357, 44.61353669 ] } },
{ "type": "Feature", "properties": { "id": 34, "latitude": 44.65869185, "longitude": -63.5892262, "ROUTE_NUM": 370, "TITLE": "PORTERS LAKE METROX", "ROUTE_FULL": "370", "WEEKDAY": null, "WEEKEND": null }, "geometry": { "type": "Point", "coordinates": [ -63.5892262, 44.65869185 ] } },
{ "type": "Feature", "properties": { "id": 35, "latitude": 44.75383577, "longitude": -63.66316327, "ROUTE_NUM": 93, "TITLE": "BEDFORD HIGHWAY", "ROUTE_FULL": "93", "WEEKDAY": null, "WEEKEND": null }, "geometry": { "type": "Point", "coordinates": [ -63.66316327, 44.75383577 ] } },
{ "type": "Feature", "properties": { "id": 36, "latitude": 44.66513541, "longitude": -63.56944818, "ROUTE_NUM": 53, "TITLE": "HIGHFIELD", "ROUTE_FULL": "53", "WEEKDAY": "Y", "WEEKEND": "Y" }, "geometry": { "type": "Point", "coordinates": [ -63.56944818, 44.66513541 ] } },
{ "type": "Feature", "properties": { "id": 37, "latitude": 44.68530277, "longitude": -63.56843727, "ROUTE_NUM": 10, "TITLE": "DALHOUSIE", "ROUTE_FULL": "10B", "WEEKDAY": "Y", "WEEKEND": "Y" }, "geometry": { "type": "Point", "coordinates": [ -63.56843727, 44.68530277 ] } },
{ "type": "Feature", "properties": { "id": 38, "latitude": 44.77574465, "longitude": -63.69521527, "ROUTE_NUM": 185, "TITLE": "MILLWOOD EXPRESS", "ROUTE_FULL": "185", "WEEKDAY": null, "WEEKEND": null }, "geometry": { "type": "Point", "coordinates": [ -63.69521527, 44.77574465 ] } },
{ "type": "Feature", "properties": { "id": 39, "latitude": 44.66097026, "longitude": -63.6633853, "ROUTE_NUM": 433, "TITLE": "TANTALLON", "ROUTE_FULL": "433", "WEEKDAY": null, "WEEKEND": null }, "geometry": { "type": "Point", "coordinates": [ -63.6633853, 44.66097026 ] } },
{ "type": "Feature", "properties": { "id": 40, "latitude": 44.66449719, "longitude": -63.53370734, "ROUTE_NUM": 62, "TITLE": "GRAHAMS GROVE", "ROUTE_FULL": "62", "WEEKDAY": "Y", "WEEKEND": "Y" }, "geometry": { "type": "Point", "coordinates": [ -63.53370734, 44.66449719 ] } },
{ "type": "Feature", "properties": { "id": 41, "latitude": 44.76785437, "longitude": -63.69879799, "ROUTE_NUM": 86, "TITLE": "BEAVER BANK", "ROUTE_FULL": "86", "WEEKDAY": "Y", "WEEKEND": "Y" }, "geometry": { "type": "Point", "coordinates": [ -63.69879799, 44.76785437 ] } },
{ "type": "Feature", "properties": { "id": 42, "latitude": 44.67212264, "longitude": -63.61630149, "ROUTE_NUM": 7, "TITLE": "PENINSULA", "ROUTE_FULL": "7A", "WEEKDAY": "Y", "WEEKEND": "Y" }, "geometry": { "type": "Point", "coordinates": [ -63.61630149, 44.67212264 ] } },
{ "type": "Feature", "properties": { "id": 43, "latitude": 44.63905583, "longitude": -63.58214128, "ROUTE_NUM": 168, "TITLE": "CHERRY BROOK EXPRESS", "ROUTE_FULL": "168B", "WEEKDAY": null, "WEEKEND": null }, "geometry": { "type": "Point", "coordinates": [ -63.58214128, 44.63905583 ] } },
{ "type": "Feature", "properties": { "id": 44, "latitude": 44.66483097, "longitude": -63.56904299, "ROUTE_NUM": 54, "TITLE": "MONTEBELLO", "ROUTE_FULL": "54", "WEEKDAY": "Y", "WEEKEND": "Y" }, "geometry": { "type": "Point", "coordinates": [ -63.56904299, 44.66483097 ] } },
{ "type": "Feature", "properties": { "id": 45, "latitude": 44.6589759, "longitude": -63.58895258, "ROUTE_NUM": 50, "TITLE": "DOCKYARD - SHIPYARD A.M.", "ROUTE_FULL": "50", "WEEKDAY": null, "WEEKEND": null }, "geometry": { "type": "Point", "coordinates": [ -63.58895258, 44.6589759 ] } },
{ "type": "Feature", "properties": { "id": 46, "latitude": 44.77574465, "longitude": -63.69521527, "ROUTE_NUM": 186, "TITLE": "BEAVER BANK EXPRESS", "ROUTE_FULL": "186", "WEEKDAY": null, "WEEKEND": null }, "geometry": { "type": "Point", "coordinates": [ -63.69521527, 44.77574465 ] } },
{ "type": "Feature", "properties": { "id": 47, "latitude": 44.67042449, "longitude": -63.50603158, "ROUTE_NUM": 68, "TITLE": "CHERRY BROOK", "ROUTE_FULL": "68", "WEEKDAY": "Y", "WEEKEND": "Y" }, "geometry": { "type": "Point", "coordinates": [ -63.50603158, 44.67042449 ] } },
{ "type": "Feature", "properties": { "id": 48, "latitude": 44.65915985, "longitude": -63.66955395, "ROUTE_NUM": 39, "TITLE": "FLAMINGO", "ROUTE_FULL": "39", "WEEKDAY": "Y", "WEEKEND": "Y" }, "geometry": { "type": "Point", "coordinates": [ -63.66955395, 44.65915985 ] } },
{ "type": "Feature", "properties": { "id": 49, "latitude": 44.66753102, "longitude": -63.57636045, "ROUTE_NUM": 51, "TITLE": "WINDMILL", "ROUTE_FULL": "51A", "WEEKDAY": "Y", "WEEKEND": "Y" }, "geometry": { "type": "Point", "coordinates": [ -63.57636045, 44.66753102 ] } },
{ "type": "Feature", "properties": { "id": 50, "latitude": 44.67027408, "longitude": -63.53911471, "ROUTE_NUM": 63, "TITLE": "MOUNT EDWARD", "ROUTE_FULL": "63", "WEEKDAY": "Y", "WEEKEND": "Y" }, "geometry": { "type": "Point", "coordinates": [ -63.53911471, 44.67027408 ] } },
{ "type": "Feature", "properties": { "id": 51, "latitude": 44.6697398, "longitude": -63.57336103, "ROUTE_NUM": 56, "TITLE": "DARTMOUTH CROSSING", "ROUTE_FULL": "56", "WEEKDAY": "Y", "WEEKEND": "Y" }, "geometry": { "type": "Point", "coordinates": [ -63.57336103, 44.6697398 ] } },
{ "type": "Feature", "properties": { "id": 52, "latitude": 44.76785437, "longitude": -63.69879799, "ROUTE_NUM": 85, "TITLE": "MILLWOOD", "ROUTE_FULL": "85", "WEEKDAY": "Y", "WEEKEND": "Y" }, "geometry": { "type": "Point", "coordinates": [ -63.69879799, 44.76785437 ] } },
{ "type": "Feature", "properties": { "id": 53, "latitude": 44.65869185, "longitude": -63.5892262, "ROUTE_NUM": 320, "TITLE": "AIRPORT - FALL RIVER METROX", "ROUTE_FULL": "320", "WEEKDAY": "Y", "WEEKEND": "Y" }, "geometry": { "type": "Point", "coordinates": [ -63.5892262, 44.65869185 ] } },
{ "type": "Feature", "properties": { "id": 54, "latitude": 44.65048351, "longitude": -63.58103758, "ROUTE_NUM": 7, "TITLE": "PENINSULA", "ROUTE_FULL": "7B", "WEEKDAY": "Y", "WEEKEND": "Y" }, "geometry": { "type": "Point", "coordinates": [ -63.58103758, 44.65048351 ] } },
{ "type": "Feature", "properties": { "id": 55, "latitude": 44.61300492, "longitude": -63.61782023, "ROUTE_NUM": 127, "TITLE": "COWIE HILL EXPRESS", "ROUTE_FULL": "127", "WEEKDAY": null, "WEEKEND": null }, "geometry": { "type": "Point", "coordinates": [ -63.61782023, 44.61300492 ] } },
{ "type": "Feature", "properties": { "id": 56, "latitude": 44.79699102, "longitude": -63.73949804, "ROUTE_NUM": 183, "TITLE": "SPRINGFIELD EXPRESS", "ROUTE_FULL": "183", "WEEKDAY": null, "WEEKEND": null }, "geometry": { "type": "Point", "coordinates": [ -63.73949804, 44.79699102 ] } },
{ "type": "Feature", "properties": { "id": 57, "latitude": 44.64133377, "longitude": -63.58333123, "ROUTE_NUM": 196, "TITLE": "BASINVIEW EXPRESS", "ROUTE_FULL": "196", "WEEKDAY": null, "WEEKEND": null }, "geometry": { "type": "Point", "coordinates": [ -63.58333123, 44.64133377 ] } },
{ "type": "Feature", "properties": { "id": 58, "latitude": 44.64905303, "longitude": -63.54723342, "ROUTE_NUM": 67, "TITLE": "BAKER", "ROUTE_FULL": "67", "WEEKDAY": "Y", "WEEKEND": "Y" }, "geometry": { "type": "Point", "coordinates": [ -63.54723342, 44.64905303 ] } },
{ "type": "Feature", "properties": { "id": 59, "latitude": 44.60430803, "longitude": -63.60181104, "ROUTE_NUM": 25, "TITLE": "GOVERNORS BROOK", "ROUTE_FULL": "25", "WEEKDAY": "Y", "WEEKEND": "Y" }, "geometry": { "type": "Point", "coordinates": [ -63.60181104, 44.60430803 ] } },
{ "type": "Feature", "properties": { "id": 60, "latitude": 44.68260972, "longitude": -63.67747516, "ROUTE_NUM": 30, "TITLE": "CLAYTON PARK WEST - DUNBRACK", "ROUTE_FULL": "30B", "WEEKDAY": "Y", "WEEKEND": "Y" }, "geometry": { "type": "Point", "coordinates": [ -63.67747516, 44.68260972 ] } },
{ "type": "Feature", "properties": { "id": 61, "latitude": 44.59749588, "longitude": -63.55489829, "ROUTE_NUM": 415, "TITLE": "PURCELLS COVE", "ROUTE_FULL": "415", "WEEKDAY": null, "WEEKEND": null }, "geometry": { "type": "Point", "coordinates": [ -63.55489829, 44.59749588 ] } },
{ "type": "Feature", "properties": { "id": 62, "latitude": 44.63905583, "longitude": -63.58214128, "ROUTE_NUM": 136, "TITLE": "FARNHAM GATE EXPRESS", "ROUTE_FULL": "136", "WEEKDAY": null, "WEEKEND": null }, "geometry": { "type": "Point", "coordinates": [ -63.58214128, 44.63905583 ] } },
{ "type": "Feature", "properties": { "id": 63, "latitude": 44.76785437, "longitude": -63.69879799, "ROUTE_NUM": 83, "TITLE": "SPRINGFIELD", "ROUTE_FULL": "83", "WEEKDAY": "Y", "WEEKEND": "Y" }, "geometry": { "type": "Point", "coordinates": [ -63.69879799, 44.76785437 ] } },
{ "type": "Feature", "properties": { "id": 64, "latitude": 44.63905583, "longitude": -63.58214128, "ROUTE_NUM": 168, "TITLE": "AUBURN EXPRESS", "ROUTE_FULL": "168A", "WEEKDAY": null, "WEEKEND": null }, "geometry": { "type": "Point", "coordinates": [ -63.58214128, 44.63905583 ] } },
{ "type": "Feature", "properties": { "id": 65, "latitude": 44.77555073, "longitude": -63.69498509, "ROUTE_NUM": 182, "TITLE": "FIRST LAKE EXPRESS", "ROUTE_FULL": "182", "WEEKDAY": null, "WEEKEND": null }, "geometry": { "type": "Point", "coordinates": [ -63.69498509, 44.77555073 ] } },
{ "type": "Feature", "properties": { "id": 66, "latitude": 44.64363477, "longitude": -63.65443765, "ROUTE_NUM": 330, "TITLE": "TANTALLON - SHELDRAKE LAKE METROX", "ROUTE_FULL": "330", "WEEKDAY": null, "WEEKEND": null }, "geometry": { "type": "Point", "coordinates": [ -63.65443765, 44.64363477 ] } },
{ "type": "Feature", "properties": { "id": 67, "latitude": 44.63905583, "longitude": -63.58214128, "ROUTE_NUM": 159, "TITLE": "COLBY EXPRESS", "ROUTE_FULL": "159", "WEEKDAY": null, "WEEKEND": null }, "geometry": { "type": "Point", "coordinates": [ -63.58214128, 44.63905583 ] } },
{ "type": "Feature", "properties": { "id": 68, "latitude": 44.64133377, "longitude": -63.58333123, "ROUTE_NUM": 123, "TITLE": "TIMBERLEA EXPRESS", "ROUTE_FULL": "123", "WEEKDAY": null, "WEEKEND": null }, "geometry": { "type": "Point", "coordinates": [ -63.58333123, 44.64133377 ] } },
{ "type": "Feature", "properties": { "id": 69, "latitude": 44.57032188, "longitude": -63.56824603, "ROUTE_NUM": 9, "TITLE": "HERRING COVE", "ROUTE_FULL": "9B", "WEEKDAY": "Y", "WEEKEND": "Y" }, "geometry": { "type": "Point", "coordinates": [ -63.56824603, 44.57032188 ] } },
{ "type": "Feature", "properties": { "id": 70, "latitude": 44.64558948, "longitude": -63.67881993, "ROUTE_NUM": 28, "TITLE": "BAYERS LAKE", "ROUTE_FULL": "28", "WEEKDAY": "Y", "WEEKEND": "Y" }, "geometry": { "type": "Point", "coordinates": [ -63.67881993, 44.64558948 ] } },
{ "type": "Feature", "properties": { "id": 71, "latitude": 44.67340338, "longitude": -63.57425484, "ROUTE_NUM": 87, "TITLE": "SACKVILLE - DARTMOUTH", "ROUTE_FULL": "87", "WEEKDAY": "Y", "WEEKEND": "Y" }, "geometry": { "type": "Point", "coordinates": [ -63.57425484, 44.67340338 ] } },
{ "type": "Feature", "properties": { "id": 72, "latitude": 44.64905303, "longitude": -63.54723342, "ROUTE_NUM": 6, "TITLE": "WOODSIDE", "ROUTE_FULL": "6A", "WEEKDAY": "Y", "WEEKEND": "Y" }, "geometry": { "type": "Point", "coordinates": [ -63.54723342, 44.64905303 ] } },
{ "type": "Feature", "properties": { "id": 73, "latitude": 44.65869185, "longitude": -63.5892262, "ROUTE_NUM": 50, "TITLE": "DOCKYARD - SHIPYARD P.M.", "ROUTE_FULL": "50", "WEEKDAY": null, "WEEKEND": null }, "geometry": { "type": "Point", "coordinates": [ -63.5892262, 44.65869185 ] } },
{ "type": "Feature", "properties": { "id": 74, "latitude": 44.78219126, "longitude": -63.69172248, "ROUTE_NUM": 84, "TITLE": "GLENDALE", "ROUTE_FULL": "84", "WEEKDAY": "Y", "WEEKEND": "Y" }, "geometry": { "type": "Point", "coordinates": [ -63.69172248, 44.78219126 ] } },
{ "type": "Feature", "properties": { "id": 75, "latitude": 44.67042449, "longitude": -63.50603158, "ROUTE_NUM": 72, "TITLE": " PORTLAND HILL", "ROUTE_FULL": "72", "WEEKDAY": "Y", "WEEKEND": "Y" }, "geometry": { "type": "Point", "coordinates": [ -63.50603158, 44.67042449 ] } },
{ "type": "Feature", "properties": { "id": 76, "latitude": 44.63814819, "longitude": -63.58565058, "ROUTE_NUM": 90, "TITLE": "LARRY UTECK", "ROUTE_FULL": "90", "WEEKDAY": "Y", "WEEKEND": "Y" }, "geometry": { "type": "Point", "coordinates": [ -63.58565058, 44.63814819 ] } },
{ "type": "Feature", "properties": { "id": 77, "latitude": 44.64547119, "longitude": -63.63575406, "ROUTE_NUM": 26, "TITLE": "SPRINGVALE", "ROUTE_FULL": "26", "WEEKDAY": null, "WEEKEND": null }, "geometry": { "type": "Point", "coordinates": [ -63.63575406, 44.64547119 ] } },
{ "type": "Feature", "properties": { "id": 78, "latitude": 44.67042449, "longitude": -63.50603158, "ROUTE_NUM": 61, "TITLE": "NORTH PRESTON", "ROUTE_FULL": "61", "WEEKDAY": "Y", "WEEKEND": "Y" }, "geometry": { "type": "Point", "coordinates": [ -63.50603158, 44.67042449 ] } },
{ "type": "Feature", "properties": { "id": 79, "latitude": 44.64760285, "longitude": -63.61959676, "ROUTE_NUM": 1, "TITLE": "SPRING GARDEN", "ROUTE_FULL": "1", "WEEKDAY": "Y", "WEEKEND": "Y" }, "geometry": { "type": "Point", "coordinates": [ -63.61959676, 44.64760285 ] } }
]
}
